ICAO,Type,Size,Name,Latitude,Longitude,Elevation(ft),Region,Municipality,IATA
LIRF,airport,large,Rome–Fiumicino Leonardo da Vinci International Airport,41.804532,12.251998,13,Lazio,Rome,FCO
LIMC,airport,large,Milan Malpensa International Airport,45.6306,8.72811,768,Lombardy,Ferno (VA),MXP
LIPZ,airport,large,Venice Marco Polo Airport,45.505299,12.3519,7,Veneto,Venezia (VE),VCE
LIML,airport,medium,Milano Linate Airport,45.445099,9.27674,353,Lombardy,Segrate (MI),LIN
LIME,airport,large,Milan Bergamo Airport / Antonio Locatelli Air Base,45.670725,9.709223,782,Lombardy,Orio al Serio (BG),BGY
LIRA,airport,medium,Ciampino–G. B. Pastine International Airport,41.7994,12.5949,427,Lazio,Rome,CIA
LIPE,airport,large,Bologna Guglielmo Marconi Airport,44.5354,11.2887,123,Emilia-Romagna,Bologna,BLQ
LIRN,airport,large,Naples International Airport,40.886002,14.2908,294,Campania,Napoli,NAP
LIRP,airport,large,Pisa International Airport,43.683899,10.3927,6,Tuscany,Pisa,PSA
LICC,airport,large,Catania-Fontanarossa Airport,37.466801,15.0664,39,Sicily,Catania,CTA
LIRQ,airport,medium,Peretola Airport,43.810001,11.2051,142,Tuscany,Firenze,FLR
LIMF,airport,large,Turin Airport,45.200802,7.64963,989,Piedmont,Caselle Torinese (TO),TRN
LICJ,airport,large,Falcone–Borsellino Airport,38.175999,13.091,65,Sicily,Palermo,PMO
LIPH,airport,medium,Treviso Antonio Canova Airport,45.648399,12.1944,59,Veneto,Treviso (TV),TSF
LIPX,airport,large,Verona Villafranca Valerio Catullo Airport,45.394955,10.887303,239,Veneto,Caselle (VR),VRN
LIEE,airport,large,Cagliari Elmas Airport,39.251499,9.05428,13,Sardinia,Cagliari,CAG
LIBD,airport,large,Bari Karol Wojtyła Airport,41.138901,16.760599,193,Apulia,Bari,BRI
LIEO,airport,medium,Olbia Costa Smeralda Airport,40.898701,9.51763,37,Sardinia,Olbia (SS),OLB
LIMJ,airport,medium,Genoa Cristoforo Colombo Airport,44.412039,8.840732,13,Liguria,Genova (GE),GOA
LIPQ,airport,medium,Trieste–Friuli Venezia Giulia Airport,45.827499,13.4722,39,Friuli-Venezia Giulia,Ronchi dei Legionari (GO),TRS
LIEA,airport,medium,Alghero-Fertilia Airport,40.632099,8.29077,87,Sardinia,Alghero,AHO
LIPV,airport,small,Venice-Lido Giovanni Nicelli Airfield,45.428299,12.3881,15,Veneto,Venezia (VE),
LIPY,airport,medium,Marche Airport,43.616299,13.3623,49,Marche,Ancona,AOI
LIBR,airport,large,Brindisi Airport,40.6576,17.947001,47,Apulia,Brindisi,BDS
LICT,airport,medium,Vincenzo Florio Airport Trapani-Birgi,37.9114,12.488,25,Sicily,Trapani (TP),TPS
LIPR,airport,medium,Federico Fellini International Airport,44.020302,12.6117,40,Emilia-Romagna,Rimini,RMI
LICA,airport,medium,Lamezia Terme Airport,38.905399,16.2423,39,Calabria,Lamezia Terme (CZ),SUF
LICZ,airport,medium,Sigonella Navy Air Base,37.401699,14.9224,79,Sicily,Sigonella (CT),NSY
LIPB,airport,medium,Bolzano Airport,46.460201,11.3264,789,Trentino-Alto Adige,Bolzano (BZ),BZO
LIPK,airport,medium,Forlì Airport,44.194801,12.0701,97,Emilia-Romagna,Forlì (FC),FRL
LIRJ,airport,medium,Marina Di Campo Airport,42.7603,10.2394,31,Tuscany,Marina  Di Campo,EBA
LIMP,airport,medium,Parma Airport,44.826351,10.29705,161,Emilia-Romagna,Parma (PR),PMF
LIBP,airport,medium,Abruzzo Airport,42.431702,14.1811,48,Abruzzi,Pescara,PSR
LIMG,airport,medium,Riviera Villanova d'Albenga International Airport,44.050598,8.12743,148,Liguria,Villanova d'Albenga (SV),ALL
LIMA,airport,medium,Torino-Aeritalia Airport,45.086399,7.60337,943,Piedmont,Torino (TO),
LIMZ,airport,medium,Cuneo International Airport,44.547001,7.62322,1267,Piedmont,Levaldigi (CN),CUF
LIPO,airport,medium,Brescia Gabriele d'Annunzio Airport,45.428902,10.3306,355,Lombardy,Montichiari (BS),VBS
LIRU,airport,medium,Rome Urbe Airport,41.952096,12.502231,55,Lazio,Rome,
LIDT,airport,medium,Trento-Mattarello Airport,46.0214,11.1242,610,Trentino-Alto Adige,Trento (TN),
LICR,airport,medium,Reggio Calabria Airport,38.071201,15.6516,96,Calabria,Reggio Calabria,REG
LIMW,airport,medium,Aosta Corrado Gex Airport,45.738552,7.3683,1791,Valle d'Aosta,Saint-Christophe (AO),AOT
LICB,airport,medium,Comiso Airport,36.994601,14.607182,623,Sicily,Comiso,CIY
LIMB,airport,small,Milano-Bresso Airfield,45.539182,9.202452,484,Lombardy,Bresso (MI),
LIPU,airport,medium,Padova Gino Allegri Airfield,45.395316,11.847124,44,Veneto,Padova (PD),
LIQS,airport,medium,Siena-Ampugnano Airport,43.256302,11.255,634,Tuscany,Siena,SAY
LIRZ,airport,medium,Perugia San Francesco d'Assisi – Umbria International Airport,43.095901,12.5132,697,Umbria,Perugia,PEG
LILH,airport,small,Voghera-Rivanazzano Airfield,44.952,9.01653,423,Lombardy,Voghera (PV),
LIPA,airport,medium,Aviano Air Base,46.031898,12.596503,410,Friuli-Venezia Giulia,Aviano (PN),AVB
LILE,airport,medium,Biella-Cerrione Airport,45.4953,8.10278,920,Piedmont,Cerrione (BI),
LIDA,airport,small,Asiago Romeo Sartori Airfield,45.886155,11.515861,3409,Veneto,Asiago (VI),
LILO,airport,small,Caiolo Sondrio Airfield,46.154448,9.79507,899,Lombardy,Caiolo (SO),
LIDU,airport,small,Carpi-Budrione Airfield,44.833231,10.871186,69,Emilia-Romagna,Carpi (MO),
LILR,airport,small,Cremona-Migliaro Airfield,45.168261,10.001864,161,Lombardy,Cremona (CR),
LIDG,airport,small,Lugo Di Romagna Airfield,44.398201,11.8548,62,Emilia-Romagna,Lugo,
LIDE,airport,small,Reggio Emilia Airport,44.698299,10.6628,152,Emilia-Romagna,Reggio Emilia,
LIED,airport,medium,Decimomannu Air Base,39.354198,8.97248,100,Sardinia,Decimomannu,DCI
LIRS,airport,medium,Grosseto Air Base,42.759701,11.0719,17,Tuscany,Grosetto,GRS
LILM,airport,small,Casale Monferrato Airfield,45.110039,8.456898,377,Piedmont,Casale Monferrato (AL),
LIPN,airport,small,Verona-Boscomantico Airfield,45.472,10.9279,286,Veneto,Verona,
LIET,airport,medium,Tortolì Airport,39.9188,9.68298,23,Sardinia,Arbatax,TTB
LIBC,airport,medium,Crotone Airport,38.9972,17.0802,522,Calabria,Crotone,CRV
LILN,airport,medium,Varese-Venegono Airport,45.742199,8.888233,1100,Lombardy,Venegono Superiore (VA),
LILA,airport,small,Alessandria Airfield,44.925635,8.626728,299,Piedmont,Alessandria (AL),
LIDB,airport,small,Belluno Arturo dell'Oro Airport,46.166549,12.250389,1240,Veneto,Belluno (BL),BLX
LIKE,airport,small,Litorale di Caorle Airfield,45.611944,12.814722,1,Veneto,Caorle (VE),
LIDF,airport,small,Fano Airfield,43.824032,13.02588,54,Marche,Fano (PS),
LIQL,airport,small,Lucca-Tassignano Airport,43.825825,10.577928,39,Tuscany,Lucca,LCV
LILQ,airport,small,Massa Cinquale Airfield,43.98598,10.143785,13,Tuscany,Massa (MS),
,airport,small,Aviosuperficie Il Falco,45.268665,7.947943,768,Piedmont,Mazzè (TO),
LIPM,airport,small,Modena-Marzaglia Airfield,44.631389,10.808611,184,Emilia-Romagna,Modena,
LICD,airport,medium,Lampedusa Airport,35.497898,12.6181,70,Sicily,Lampedusa,LMP
LICG,airport,medium,Pantelleria Airport,36.816502,11.9689,628,Sicily,Pantelleria (TP),PNL
LIDR,airport,small,Ravenna Airport,44.36391,12.224978,1,Emilia-Romagna,Ravenna,RAN
LIQB,airport,small,Arezzo Airfield,43.455897,11.847,814,Tuscany,Arezzo,
LIPD,airport,small,Udine-Campoformido Air Base,46.0308,13.18225,305,Friuli-Venezia Giulia,Campoformido (UD),UDN
LILV,airport,small,Valbrembo Airfield,45.719864,9.593954,745,Lombardy,Carvico (BG),
LIPF,airport,small,Ferrara Airfield,44.816002,11.6134,20,Emilia-Romagna,Ferrara,
LIPG,airport,small,Gorizia Duca d'Aosta Airport,45.906898,13.5993,207,Friuli-Venezia Giulia,Gorizia (GO),
,airport,small,Ivrea Montalto Dora Airfield,45.487546,7.84323,807,Piedmont,Montalto Dora (TO),
LIER,airport,small,Oristano-Fenosu Airport,39.895308,8.642661,36,Sardinia,Oristano,FNU
LIKO,airport,small,Guglielmo Zamboni,44.475,11.541664,98,Emilia-Romagna,Ozzano Emilia (BO),
LIQN,airport,small,Rieti Airfield,42.4272,12.8517,1278,Lazio,Rieti,
LIQF,airport,small,Aviosuperficie Palazzolo Avio,43.55916,12.155903,1050,Tuscany,San Sepolcro (AR),
LIVV,airport,small,Aviosuperficie Moncucco,45.344613,7.919072,781,Piedmont,Vische (TO),
LIBF,airport,medium,"Foggia ""Gino Lisa"" Airport",41.432899,15.535,265,Apulia,Foggia,FOG
LIRI,airport,medium,Salerno Costa d'Amalfi Airport,40.620399,14.9113,119,Campania,Salerno,QSR
LIPI,airport,medium,Udine-Rivolto Air Base,45.978699,13.0493,179,Friuli-Venezia Giulia,Codroipo (UD),
LIBV,airport,medium,Gioia Del Colle Air Base,40.767799,16.9333,1187,Apulia,Gioia Del Colle (BA),
LIPS,airport,medium,Istrana Air Base,45.684358,12.087107,137,Veneto,Istrana (TV),
LILI,airport,medium,Vercelli Airfield,45.309935,8.417931,417,Piedmont,Vercelli (VC),
,airport,small,"Campo di Volo ""Le Merline""",44.97287,9.479142,300,Emilia-Romagna,Agazzano (PC),
,airport,small,Aviosuperficie Pegasus 2000,45.30993,7.665453,1312,Piedmont,Busano (TO),
,airport,small,Campo di Volo Carolina,45.253154,7.898977,708,Piedmont,Caluso (TO),
,airport,small,Carzago Riviera Airfield,45.516789,10.464759,639,Lombardy,Calvagese della Riviera (BS),
LIAU,airport,small,Capua Airport,41.116001,14.178,64,Campania,Capua,
,airport,small,Astigiana,44.888806,8.354867,469,Piedmont,Castello D'Annone (AT),
LILF,airport,small,Castelnuovo Don Bosco Airfield,45.024444,7.966389,730,Piedmont,Castelnuovo Don Bosco (AT),
,airport,small,"Aviosuperficie ""Delta Club Napoli""",41.065278,13.9625,,Campania,Castelvolturno,
,airport,small,Aviosuperficie Celano,42.05167,13.55722,2234,Abruzzi,Celano (AQ),
,airport,small,Santa Lucia Airfield,45.483966,9.953184,357,Lombardy,Cizzago (BS),
,airport,small,Valle Gaffaro Airfield,44.834414,12.231261,1,Emilia-Romagna,Codigoro (FE),
,airport,small,Aviosuperficie Dovera,45.380525,9.534974,259,Lombardy,Dovera (CR),
,airport,small,Aviosuperficie Massalengo,45.275425,9.482934,239,Lombardy,Massalengo (LO),
,airport,small,"Campo di Volo ""Delta Condor""",43.869653,10.301777,1,Tuscany,Massarosa (LU),
,airport,small,Aviosuperficie Giancarlo Filippi,44.409934,7.809992,1411,Piedmont,Mondovì (CN),
,airport,small,Cesare Rossi Airfield,43.102879,13.557816,492,Marche,Montegiorgio (AP),
,airport,small,Blue Devil Centre Airfield,45.392393,10.127678,223,Lombardy,Offlaga (BS),
LIDP,airport,small,Pavullo Airfield,44.322399,10.8317,2244,Emilia-Romagna,Pavullo (MO),
LIKL,airport,small,La Comina Airfield,45.991852,12.65399,200,Friuli-Venezia Giulia,Pordenone (PN),
,airport,small,Aviosuperficie Eremo della Giubiliana,36.861287,14.627008,1401,Sicily,Ragusa,
,airport,small,Madonna di Loreto Airfield,43.43913,13.57054,47,Marche,Recanati,
LIAA,airport,small,"Aviosuperficie ""Alvaro Leonardi""",42.573333,12.584444,374,Umbria,Terni,
LIDH,airport,small,Thiene Arturo Ferrarin Airfield,45.67783,11.496306,335,Veneto,Thiene (VI),
LILC,airport,small,Calcinate del Pesce Airfield,45.8097,8.76806,797,Lombardy,Varese (VA),
LILG,airport,small,Vergiate Airfield,45.712633,8.700714,863,Lombardy,Vergiate (VA),
LILB,airport,small,Alzate Brianza Airfield,45.769644,9.162333,1260,Lombardy,Verzago (CO),
,airport,small,Aviosuperficie Leonardo da Vinci.,45.288333,8.8,358,Lombardy,Vigevano (PV),
LIBN,airport,medium,Lecce Galatina Air Base,40.239201,18.133301,156,Apulia,Galatina,LCC
LIMN,airport,medium,Cameri Air Base [MIL],45.529598,8.66922,586,Piedmont,Cameri (NO),
LIPL,airport,medium,Ghedi Air Base,45.432551,10.268612,333,Lombardy,Ghedi (BS),
LIBG,airport,medium,"Taranto-Grottaglie ""Marcello Arlotta"" Airport",40.517502,17.4032,215,Apulia,Grottaglie,TAR
LICP,airport,medium,Palermo-Boccadifalco Airport,38.110802,13.3133,345,Sicily,Palermo,
LIRV,airport,medium,Viterbo Airport,42.430199,12.0642,992,Lazio,Viterbo,
,airport,small,Aviosuperficie Acqui Terme,44.677488,8.50124,430,Piedmont,Acqui Terme (AL),
,airport,small,Cà del Conte Airfield,44.870165,9.938164,,Emilia-Romagna,Alseno (PC),
,airport,small,Campo di Volo Delta Club,41.716433,13.094704,659,Lazio,Anagni (FR),
LIAQ,airport,small,Aquino Airfield,41.493566,13.717942,361,Lazio,Aquino,
,airport,small,"Aviosuperficie ""Dominio di Bagnoli""",45.188628,11.858303,3,Veneto,Bagnoli di Sopra,
,airport,small,Campo di volo BATFLY,41.343401,16.213181,6,Apulia,Barletta,
,airport,small,Bedizzole Airfield,45.51851,10.449577,623,Lombardy,Bedizzole (BS),
,airport,small,"Aviosuperficie ""LYRA 34""",44.500278,11.944444,36,Emilia-Romagna,Belricetto (RA),
,airport,small,Bolgheri,43.209663,10.543751,,Tuscany,Bolgheri,
,airport,small,Aviosuperficie Vigarolo,45.2175,9.466667,220,Lombardy,Borghetto Lodigiano (LO),
,airport,small,Campo di Volo AliVara,44.227697,9.720077,311,Liguria,Borghetto Vara (SP),
,airport,small,Aviosuperficie Collina,43.988371,11.389562,951,Tuscany,Borgo San Lorenzo (FI),
,airport,small,Aviosuperficie Angelo D'Arrigo,37.799561,15.22775,197,Sicily,Calatabiano (CT),
,airport,small,Campo Di Volo Camerana (alta langa),44.411152,8.120849,627,Piedmont,Camerana,
,airport,small,Mazarack Flying Field,45.639444,12.943611,,Veneto,Caorle,
LIAT,airport,small,Aviosuperficie Valdera/Capannoli,43.5919444444,10.6955555556,39,Tuscany,Capannoli,
,airport,small,"Campo di Volo ""Delta Team Lucca""",43.784226,10.603388,24,Tuscany,Capannori (LU),
,airport,small,Aviosuperficie Cascina Colombare,45.496667,8.527167,558,Piedmont,Casaleggio (NO),
,airport,small,Campo di Volo Casalfiumanese,44.28966,11.625632,,Emilia-Romagna,Casalfiumanese,
,airport,small,Aviosuperficie Gragnano,45,9.581999,285,Emilia-Romagna,Casaliggio di Gragnano (PC),
,airport,small,Aviosuperficie Baialupo,45.5529,9.50567,489,Lombardy,Cassano d'Adda (MI),
,airport,small,Campo di Volo L'ELIKA,44.88293,7.56105,,Piedmont,Castagnole Piemonte (TO),
,airport,small,"Campo di Volo ""Bosio Guido""",44.434194,7.632258,1499,Piedmont,Castelletto Stura (CN),
,airport,small,Aviosuperficie Castigliano del Lago,43.134212,12.03425,,Umbria,Castigliano del Lago (PG),
,airport,small,"Agriturismo ""Podere Santa Apollonia""",43.295278,11.907222,810,Tuscany,Castiglion Fiorentino (AR),
LIQQ,airport,small,Aviosuperficie Serristori,43.332147,11.858067,859,Tuscany,Castiglion Fiorentino (AR),
,airport,small,"Aviosuperficie ""Punta Ala""",42.842172,10.82307,,Tuscany,Castiglione Della Pescaia (GR),
,airport,small,Campo di Volo Top Gun,44.682302,10.568648,259,Emilia-Romagna,"Cavriago (RE), loc. Coviolo",
,airport,small,"Aviosuperficie ""Base Bravo""",45.392864,11.692645,45,Veneto,Cervarese Santa Croce (PD),
,airport,small,Altiporto Chamois,45.833793,7.618504,5600,Valle d'Aosta,Chamois (AO),
,airport,small,"Campo di Volo ""Volo Club Milano""",45.449444,8.998333,335,Lombardy,Cisliano (MI),
LIAL,airport,small,Aviosuperficie Sant'Illuminato,43.353667,12.216667,984,Umbria,Città di Castello (PG),
,airport,small,Al Casale Airfield,45.984782,12.923537,148,Friuli-Venezia Giulia,Codroipo (UD),
,airport,small,Campo di Volo Cogliate,45.640218,9.066056,,Lombardy,Cogliate (MI),
,airport,small,Aviosuperfice Mensanello,43.372874,11.120749,,Tuscany,Colle di val d'Elsa (SI),
,airport,small,"Campo di Volo ""Delta club Conselice""",44.541928,11.792177,9,Emilia-Romagna,Conselice (RA),
,airport,small,Val Vibrata Flying Field,42.809474,13.847142,269,Abruzzi,Corropoli (TE),
,airport,small,Aviosuperficie Boglietto,44.758611,8.183056,610,Piedmont,Costigliole d'Asti (AT),
,airport,small,Cumiana Airfield,44.939043,7.428925,984,Piedmont,Cumiana (TO),
,airport,small,Aviosuperficie Città di Curtatone,45.101333,10.75005,68,Lombardy,Curtatone,
,airport,small,Campo di Volo Aerlight Faenza,44.3353333,11.9178667,52,Emilia-Romagna,Faenza (RA),
,airport,small,Aviosuperficie Aviodelta,44.706594,10.249517,524,Emilia-Romagna,Felino (PR),
LINF,airport,small,Fermano Airfield,43.22652,13.74252,49,Marche,Fermo (FM),
LIDV,airport,small,Prati Vecchi d'Aguscello Airport,44.790884,11.671901,20,Emilia-Romagna,Ferrara (FE),
LIDI,heliport,small,Cortina d'Ampezzo Sant'Anna Heliport,46.574099,12.115463,4213,Veneto,Fiames (BL),
LIAF,airport,small,Foligno Airfield,42.9328,12.7101,730,Umbria,Foligno (PG),
,airport,small,Aviosuperficie Francavilla Bisio,44.729868,8.730075,525,Piedmont,Francavilla Bisio (AL),
,airport,small,Merlo Romano Airfield,44.834433,7.363565,1000,Piedmont,Garzigliana (TO),
,airport,small,"Campo di Volo ""Air Patria""",40.926943,14.061944,100,Campania,Giuliano (NA),
,airport,small,"Campo di Volo ""Delta Culture Club""",44.571111,11.451667,115,Emilia-Romagna,Granarolo Emilia (BO),
,airport,small,"Campo di Volo ""Aerolight Marche""",43.512778,13.193611,328,Marche,Jesi (AN),
LIAP,airport,small,L'Aquila–Preturo Airport,42.379902,13.3092,2211,Abruzzi,L'Aquila,QAQ
,airport,small,Aviosuperficie Oasi dei Re,36.72148,14.77365,128,Sicily,Marina di Modica (RG),
,airport,small,Aviosuperficie CHAVEZ-MARINI,46.134167,8.306333,912,Piedmont,Masera (VB),
LINB,airport,small,Corte Airfield,40.107104,18.257618,262,Apulia,Melpignano (LE),
,airport,small,Aviosuperficie Mezzana Bigli,45.065409,8.835176,,Lombardy,Mezzana Bigli (PV),
,airport,small,Aviosuperficie Molinella,44.5982,11.656286,22,Emilia-Romagna,Molinella (BO),
,airport,small,"Aviosuperficie ""Avioclub Montagnana""",45.24438,11.42567,32,Veneto,Montagnana (PD),
,airport,small,Aviosuperficie Kong,45.76161,9.44497,633,Lombardy,Monte Marenzo (LC),
,airport,small,Fly Roma Airfield,41.884894,12.718286,190,Lazio,Montecompatri (RM),
,airport,small,Fly Synthesis Airfield,45.968667,13.23355,167,Friuli-Venezia Giulia,Mortegliano (UD),
,airport,small,Aviosuperficie F. Baracca,45.838889,12.193889,269,Veneto,Nervesa della Battaglia,
,airport,small,Corry's Airfield,45.519248,10.380685,541,Lombardy,Nuvolera (BS),
,airport,small,Piancada Airfield,45.76417,13.07304,1,Friuli-Venezia Giulia,Palazzolo della Stella (UD),
,closed,closed,Aviosuperficie Avioclub Paternò,37.553356,14.884435,377,Sicily,Paternò,
,airport,small,Aviosuperficie La Filanda,43.4464,11.67414,,Tuscany,Pergine Valdarno (AR),
,airport,small,Campo di Volo Beltrutta,44.498333,7.723333,1174,Piedmont,Pezzolo Valle Uzzone (CN),
,airport,small,Aviosuperficie Prealpi-Musinè,45.124499,7.521442,,Piedmont,Pianezza (TO),
,airport,small,Aviosuperficie Piovera,44.935833,8.749333,312,Piedmont,Piovera (AL),
,airport,small,Campo di Volo Sant'Elia,44.741963,7.70987,,Piedmont,Racconigi (CN),
,airport,small,Aviosuperficie Rinaura,37.028647,15.243509,40,Sicily,Rinaura (SR),
,airport,small,Rivoli Tetti Neirotti Airfield,45.046818,7.536461,1000,Piedmont,Rivoli (TO),
,airport,small,Aviosuperficie Rosangeles,45.362833,9.016683,360,Lombardy,Rosate (MI),
,airport,small,Aviosuperficie Bovarella,37.792694,12.845078,656,Sicily,Salemi,
LIDW,airport,small,Aviosuperficie G. Carrer,45.6992,12.5431,7,Veneto,Salgareda (TV),
LIKI,airport,small,Aviosuperficie Caposile,45.564444,12.574722,,Veneto,San Donà di Piave,
,airport,small,Campo di volo Ploia,44.884167,8.780833,420,Piedmont,San Giuliano Vecchio (AL),
,airport,small,"Aviosuperficie ""Parco Livenza""",45.74,12.70393,,Veneto,San Stino di Livenza (VE),
,airport,small,Locher Field,46.600776,11.380098,3000,Trentino-Alto Adige,Sarentino (BZ),
LIQY,airport,small,Aviosuperficie Aliscarlino,42.912222,10.816667,9,Tuscany,Scarlino (GR),
,airport,small,San Paolo Airfield,45.378663,10.037792,131,Lombardy,Scarpizzolo (BS),
,airport,small,Campo di Volo Groane,45.56612,9.109705,,Lombardy,Senago (MI),
,closed,closed,"Campo di Volo ""Senigallia Nord""",43.738267,13.183208,,Marche,Senigallia,
,airport,small,Aviosuperficie di Rubbiano,44.671947,10.060862,518,Emilia-Romagna,Solignano,
,airport,small,Aviosuperficie La Speziana,45.12847,9.36284,459,Lombardy,Spessa Po (PV),
,airport,small,"Campo di Volo ""Delta Top Pegaso""",42.224206,11.7948,351,Lazio,Tarquinia (VT),
,airport,small,Pradelle Airfield,45.49278,10.119883,341,Lombardy,Torbole di Casaglia (BS),
,airport,small,Aviosuperficie Delfina,42.842934,12.734494,708,Umbria,Trevi (PG),
,airport,small,Campo di Volo Valsusa,45.1125,7.287222,1250,Piedmont,Vaie (TO),
LIDL,airport,small,Legnago Airfield,45.129259,11.293344,30,Veneto,Vangadizza (VR),
,airport,small,Passo del Tonale Airfield,46.265134,10.600662,6550,Trentino-Alto Adige,Vermiglio (TN),
,airport,small,Campo di Volo Pellicano,44.8472222,7.5622222,813,Piedmont,Virle (TO),
,airport,small,Campo di Volo Arcobaleno,44.4969444,11.2436111,,Emilia-Romagna,Zola Predosa (BO),
,heliport,small,Eliporto Imperia,43.8842,8.028549,,Liguria,,
,heliport,small,Eliossola Heliport,41.3524,13.44381,187,Lazio,04022 Fondi LT,
,heliport,small,Ospedale Civile Helipad,42.66673,13.71704,961,Abruzzi,64100 Teramo TE,
,heliport,small,Protezione Civile Valtrigno,41.86637,14.53371,2942,Lazio,66050 Torrebruna CH,
,closed,closed,Campo Volo SAT Torino,44.889233,7.680422,,Piedmont,Carmagnola,
,heliport,small,Ceccano Heliport,41.53391,13.37462,400,Lazio,Castro dei Volsci FR,
,heliport,small,Poliambulatorio di Ladispoli Helipad,41.96867,12.08137,29,Lazio,Poliambulatorio di Ladispoli,
,heliport,small,Ospedale San Camillo,41.86757,12.45755,134,Lazio,Roma,
,heliport,small,Ospedale di Sora Heliport,41.72915,13.6321,1167,Lazio,Sora,
,heliport,small,Elitaliana Pegaso 33 Heliport,42.44131,12.05924,984,Lazio,Viterbo,
LINI,heliport,small,San Domino Island Heliport,42.117775,15.490655,,Apulia,Tremiti Islands,
LIPC,airport,medium,Cervia Air Base,44.224201,12.3072,18,Emilia-Romagna,Cervia,
LIRE,airport,medium,Pratica Di Mare Air Base,41.654499,12.4452,41,Lazio,Pomezia,
LIRL,airport,medium,Latina Air Base,41.5424,12.909,94,Lazio,Latina,
LIRM,airport,medium,Grazzanise Air Base,41.060799,14.0819,29,Campania,Caserta,
LIBA,airport,medium,Amendola Air Base,41.541401,15.7181,183,Apulia,Foggia,
LIRG,airport,medium,Guidonia Air Base,41.990299,12.7408,289,Lazio,Guidonia,
LIMR,airport,medium,Novi Ligure Eugenio Mossi Airfield,44.779999,8.78639,607,Piedmont,Novi Ligure (AL),
LIMS,airport,medium,Piacenza San Damiano Air Base,44.913102,9.723322,456,Emilia-Romagna,San Damiano (PC),
LIQW,airport,medium,Sarzana-Luni Air Base,44.088001,9.98795,45,Liguria,Sarzana (SP),
,closed,closed,Vicenza Airport,45.573399,11.5295,128,Veneto,Vicenza (VI),
,airport,small,Campo di Volo Meda,45.676374,8.486462,,Piedmont,,
,airport,small,La Tomasina,45.3283659,8.7974125,,Lombardy,,
,airport,small,"Campo di Volo ""Gli Aironi""",44.462771,11.789613,22,Emilia-Romagna,,
,airport,small,Rivaltella,44.642004,10.591759,,Emilia-Romagna,,
,airport,small,Aviosuperficie di Fucecchio,43.7514431,10.8073791,,Tuscany,,
,airport,small,Aviosuperficie Rotocenter,43.7152961,10.7439971,,Tuscany,,
,airport,small,Aviosuperfice Tronto,42.89005,13.87096,,Marche,,
,airport,small,CdV Serra de' Conti,43.55993,13.01976,,Marche,,
,airport,small,Centro Volo Campania,40.9515272,14.41188,,Campania,,
,airport,small,CdV Baia e Latina,41.29702,14.27219,,Campania,,
,airport,small,Campo di Volo Priolo (CLGP),37.07992,14.38008,545,Sicily,,
,airport,small,Aviosuperficie dei Navigli,45.414722,8.895,374,Lombardy,Abbiategrasso,
,airport,small,Campo di Volo Acquasparta,42.6841667,12.5527778,,Umbria,Acquasparta,
,airport,small,Agnedo Airfield,46.044722,11.541944,,Trentino-Alto Adige,Agnedo (TR),
,airport,small,Aviosuperficie Agrigento,37.247222,13.654722,167,Sicily,Agrigento,
,airport,small,Campo di Volo Aidone (cugno),37.432392,14.61525,450,Sicily,Aidone,
,airport,small,"Aviosuperficie ""Avioclub Alanno""",42.31458,14.000913,383,Abruzzi,Alanno (PE),
,airport,small,Cascina Rosio,45.417908,8.964061,384,Lombardy,Albairate,
,airport,small,Campo di Volo Borgotaro Albareto,44.464558,9.715806,1450,Emilia-Romagna,Albareto (PR),
,airport,small,"Campo di Volo ""Al Canale""",40.8125,17.233056,1100,Apulia,Alberobello,
,airport,small,"Campo di Volo ""Flying Tigers""",45.441708,7.935971,751,Piedmont,Albiano d'Ivrea,
,airport,small,"Campo di Volo ""Ali Filanti""",44.582222,11.923056,20,Emilia-Romagna,Alfonsine (FE),
,airport,small,Campo di Volo AliMatese,41.323638,14.363949,370,Campania,Alife (CE),
,airport,small,Tignes Airfield,46.15401,12.34751,1676,Veneto,Alpago (BL),
,airport,small,Pianon Altiport,46.145432,12.42808,3001,Veneto,Alpago (BL),
,airport,small,"Aviosuperficie ""Il Nido delle Acquile""",40.93769,16.497,1621,Apulia,Altamura,
,airport,small,Campo di Volo Altavillafly,40.5458333,15.1019444,207,Campania,Altavilla Silentina (SA),
,airport,small,"Aviosuperficie ""Amici del Volo""",41.676997,13.74285,1217,Lazio,Alvito (FR),
,airport,small,Pietralata Flying Field,39.970654,18.381006,300,Apulia,Andrano (LE),
,airport,small,"Aviosuperficie ""Ali sul Castello""",41.063481,16.280887,984,Apulia,Andria (BA),
,airport,small,Aviosuperficie Santo Stefano,42.072262,12.2628,725,Lazio,Anguillara Sabazia (RM),
,airport,small,Campo volo Apricena Fly ULM,41.79806,15.419932,443,Apulia,Apricena,
,airport,small,Aviosuperficie Fly Center,41.5472222,12.6708333,,Lazio,Aprilia (LT),
,closed,closed,Il Fantasma Arcole Airfield,45.36,11.294444,56,Veneto,Arcole,
,airport,small,"Campo di Volo ""Air Ardara""",40.625979,8.868129,734,Sardinia,Ardara (SS),
,airport,small,"Aviosuperficie ""Reno Air Club""",44.61269,11.32424,125,Emilia-Romagna,Argelato,
,airport,small,Corte Bariani,45.033228,11.724291,,Veneto,Arquà Polesine (RO),
,airport,small,Aviosuperficie Artena,41.673056,12.845556,649,Lazio,Artena (RM),
,airport,small,Campo di Volo di Vallecamonica,45.855901,10.147571,673,Lombardy,Artogne (BS),
,airport,small,Campo di Volo Castel Caladan,45.461305,9.576677,46,Lombardy,Arzago d'Adda (BG),
,airport,small,Asolo Flight Airfield,45.758333,11.896111,252,Veneto,Asolo (TV),
,airport,small,Aviosuperficie Avola-Gallina,36.945287,15.170774,114,Sicily,Avola (SR),
,airport,small,Azzanello Airfield,45.293845,9.919281,159,Lombardy,Azzanello (CR),
,airport,small,Campo di Volo Ondalba,44.776117,7.879334,1017,Piedmont,Baldissero D'Alba (CN),
,airport,small,Barbarano Mossano Private Airstrip,45.398029,11.549892,-1,Veneto,Barbarano Vicentino,
,airport,small,Alla Colombara Airiield,45.752853,11.6925,328,Veneto,Bassano del Grappa (VI),
,airport,small,"Campo di Volo ""Ali della Libertà""",44.516167,11.100083,,Emilia-Romagna,Bazzano (BO),
,airport,small,Campo di Volo Country Fly,44.503056,7.821667,1350,Piedmont,Bene Vagienna (CN),
LIRO,airport,small,Aviosuperficie Olivola,41.17751,14.74734,,Campania,Benevento (BN),
,airport,small,Al Ranch Airfield,45.923428,13.035592,,Friuli-Venezia Giulia,Bertiolo (UD),
,airport,small,Campo di Volo privato Bigarello,45.170815,10.929061,70,Lombardy,Bigarello (MN),
,airport,small,Aviosuperficie Cosenza,39.527877694699995,16.2298965454,180,Calabria,Bisignano,
,heliport,small,Helibase Pelikan 1,46.497639,11.30527,,Trentino-Alto Adige,Bolzano (BZ),
,airport,small,Campo di Volo Bonsciano,43.355854,12.193534,882,Umbria,Bonsciano (PG),
,airport,small,Campo di Volo AliLafer,45.033682,9.791865,147,Emilia-Romagna,Borghetto (PC),
,airport,small,Aviosuperficie Condor,41.415,12.979444,56,Lazio,Borgo San Michele (LT),
,airport,small,Aviosuperficie Il Picchio,45.708667,8.595667,699,Piedmont,Borgo Ticino (NO),
,airport,small,San Felice-Trichiana Airfield,46.084723,12.121052,984,Veneto,Borgo Valbelluna (BL),
,airport,small,Bracciano Air Base,42.0822,12.07459,,Lazio,Bracciano,
,airport,small,Campo di volo S.Elia (Buccino),40.658381,15.335616,,(unassigned),Buccino (SA),
,airport,small,Aviosuperficie Loelle,40.5701667,9.3173667,2598,Sardinia,Buddusò (SS),
,airport,small,Campo di Volo La Torretta,44.99341,10.060065,118,Emilia-Romagna,Busseto (PR),
,airport,small,Că Mantovane Airfield,45.239484,10.889615,111,Lombardy,Că Mantovane (MN),
LIDC,airport,small,Cà Negra Airport,45.08300018310547,12.149999618530273,1,Veneto,Cà Negra,
,airport,small,San Marco Volo Airfield,45.771043,11.996559,348,Veneto,Caerano San Marco (TV),
,airport,small,Campo di Volo Rains,41.146,14.338803,97,Campania,Caiazzo (CE),
,airport,small,Casa Bianca Model Airfield,45.466596,10.347943,,Lombardy,Calcinato (BS),
,airport,small,Bosco di Mezzo Airfield (CTCAL),37.1523,14.59928,1306,Sicily,Caltagirone (CT),
,airport,small,"Campo di Volo ""Aquila Solitaria""",37.42709,14.02916,,Sicily,Caltanissetta,
,airport,small,La Zappaglia Airfield,45.326746,10.378411,216,Lombardy,Calvisano (BS),
,airport,small,Aviosuperficie La Celsetta,42.121667,12.360556,722,Lazio,Campagnano (RM),
,airport,small,Campo di Volo Campiglia,43.019437,10.594659,16,Tuscany,Campiglia Marittima,
,airport,small,Aviosuperficie Club Ibis,43.022522,10.61157,49,Tuscany,Campiglia Marittima (LI),
,airport,small,Volo Molise,41.45948,14.53799,1738,Molise,Campochiaro (CB),
,airport,small,Base Aerea Molise,41.474462,14.537457,1669,Molise,Campochiaro (CB),
,airport,small,Termon Altiport,46.270833,11.025833,2231,Trentino-Alto Adige,Campodenno (TN),
,airport,small,Campo Volo Vicari (PACAM),37.800747,13.52314,995,Sicily,Campofelice di fitalia,
,airport,small,Campo di Volo Campogalliano,44.70355,10.85416,118,Emilia-Romagna,Campogalliano,
,airport,small,Pegaso Airfield,45.318282,12.056959,,Veneto,Campolongo Maggiore (VE),
,airport,small,Arcora Flying Field,41.94428,15.04761,,Molise,Campomarina,
,airport,small,Campo di Volo I Quattro Cantoni,44.8030556,11.138333,,Emilia-Romagna,Camposanto (MO),
,airport,small,Aviosuperficie Aretusa Fly,37.03741,15.09536,1012,Sicily,Canicattini Bagni,
,airport,small,Campo volo Val Triversa,44.906894,8.034096,574,Piedmont,Cantarana (AT),
,airport,small,Aviosuperficie Templare Paestum,40.472649,14.959581,,Campania,Capaccio (Laura),
,airport,small,"Campo di Volo ""Oasi da Peppe""",40.4525,15.001389,16,Campania,Capaccio (SA),
,airport,small,Campo di Volo Selva Negra,42.406825,11.396192,,Tuscany,Capalbio,
,airport,small,Aviosuperficie Roma-Nord,42.119945,12.604453,78,Lazio,Capena (RM),
,airport,small,Campo di Volo Capo d'Orlando,38.126421,14.707904,16,Sicily,Capo d'Orlando (ME),
,airport,small,Campo di Volo Careas,45.50668,9.66814,,Lombardy,Caravaggio (BG),
,airport,small,ASD Salento Fly,40.35,18.0611111,60,Apulia,Carmiano (LE),
,airport,small,Aviosuperficie Minotaurus e Medusa,38.049105,14.541306,13,Sicily,Caronia,
,airport,small,Willy il Coyote Airfield,44.771828,10.832155,88,Emilia-Romagna,Carpi (MO),
,airport,small,"Aviosuperficie ""Il Pratone""",42.093703,13.042332,1893,Abruzzi,Carsoli (AQ),
,closed,closed,Banana Airfield,45.597525,12.30855,6,Veneto,Casale sul Sile (TV),
,airport,small,Campo di Volo Aeroteam,45.4362801,8.5770435,,Piedmont,Casalgiate (NO),
,airport,small,"Campo di Volo ""Ass.Sp.Volo Leggero""",45.261776,11.192901,62,Veneto,Casalino Isola Rizza (VR),
,airport,small,Campo di Volo Santa Rita,42.75654,13.01628,2900,Umbria,Cascia (PG),
,airport,small,"Campo di Volo ""Air Folies""",45.53297,8.90103,558,Lombardy,Casorezzo (MI),
,airport,small,Campo di Volo Oasi,45.696556,8.826948,980,Lombardy,Cassano Magnago (VA),
,airport,small,Cassola Airfield,45.741308,11.806548,321,Veneto,Cassola (VI),
,airport,small,"Campo volo ""Il Laghetto""",44.777333,8.1295,450,Piedmont,Castagnole Lanze (AT),
,airport,small,Campo di Volo Pellizzario,45.2927778,10.4466667,140,Lombardy,Castel Goffredo (MN),
,airport,small,"Campo di Volo ""Club Deltasport""",44.653559,10.991591,,Emilia-Romagna,Castelfranco Emilia (MO),
,airport,small,Campo di Volo Medole,45.339031,10.480944,230,Lombardy,Castelgoffredo (MN),
,airport,small,Club Volo Ultraleggeri del Canavese,45.358333,7.719722,853,Piedmont,Castellamonte (TO),
,airport,small,Aviosuperficie Castellazzo,44.6833333,10.7397222,141,Emilia-Romagna,Castellazzo,
,airport,small,"Aviosuperficie privata ""La Ceriella""",45.220143,8.659543,,Lombardy,Castello d'Agogna (PV),
,airport,small,Ali Libere,42.829833,12.683383,,Umbria,Castelritaldi (PG),
,airport,small,Campo di Volo Valbelice,37.674242,12.774611,541,Sicily,Castelvetrano (TP),
,airport,small,Aviosuperficie Antica Sardegna,39.270695,9.538871,206,Sardinia,Castiadas (CA),
,airport,small,Campo di Volo Ciannocio,43.122253,11.920488,826,Umbria,Castiglione del Lago (PG),
,airport,small,Conca del Re,39.853525,16.197045,,Calabria,Castrovillari (CS),
,airport,small,VolAvisio Airfield,46.27888,11.44837,2820,Trentino-Alto Adige,Cavalese (TN),
,airport,small,"Campo di Volo ""Cavaliere d'Italia""",45.156334,12.110272,1,Veneto,Cavarzere (VE),
,airport,small,Aviosuperficie Aero Club Valdarno S.C.U.V.,43.53084,11.473086,1131,Tuscany,Cavriglia (AR),
,airport,small,Aviosuperficie Pegaso Flying Club,41.541847,13.370451,360,Lazio,Ceccano (FR),
,airport,small,Campo di Volo Giovanni Zaccini,41.560349,13.34412,492,Lazio,Ceccano (FR),
LIQG,airport,small,Aviosuperficie Cecina,43.2844444,10.5227778,,Tuscany,Cecina,
,airport,small,Esperti Airfield,40.480095,17.885069,196,Apulia,Cellino San Marco (BR),
,airport,small,La Canonica Airfield,45.635467,12.340599,,Veneto,Cendon di Silea (TV),
,airport,small,Ceresara Airfield,45.263695,10.582549,138,Lombardy,Ceresara (MN),
,airport,small,Cerreto Castello,45.548056,8.161111,1000,Piedmont,Cerreto Castello (BI),
,airport,small,"Campo di Volo ""Valerio Glorialanza""",44.376111,9.290278,49,Liguria,Certenoli,
,airport,small,Campo di Volo Sangermano,41.991555,12.13791,337,Lazio,Cerveteri (RM),
,airport,small,Chiasiellis Airfield,45.944928,13.208403,118,Friuli-Venezia Giulia,Chiasiellis (UD),
,airport,small,"Campo di Volo ""Gli Acquilotti""",45.138,12.2334,1,Veneto,Chioggia (VE),
,airport,small,Aviosuperficie Club Chiusdino,43.191012,11.143076,918,Tuscany,Chiusdino (SI),
,airport,small,Campo di Volo Chiusi Scalo,42.972564,11.944301,,Tuscany,Chiusi Scalo,
,airport,small,Ali Friuli Airfield,46.056493,13.426248,370,Friuli-Venezia Giulia,Cividale del Friuli (UD),
,airport,small,CdV Colibri,42.3008333,12.3797222,,Lazio,Civita Castellana (VT),
,airport,small,"Aviosuperficie ""Villa Selva Air Park""",42.79277,13.75146,551,Abruzzi,Civitella del Tronto (TE),
,airport,small,La Fattoria Airfield,45.291762,12.075799,6,Veneto,Codevigo (PD),
,airport,small,Butterfly 2 Airfield,45.85255,12.45734,52,Veneto,Codognè (TV),
,airport,small,"Campo di Volo ""Il Gruccione""",43.605515,10.411837,15,Tuscany,Collesalvetti (LI),
,airport,small,Aviosuperficie Sorvoliamo,37.0084558926,14.5951116085,722,Sicily,Comiso,
,airport,small,Arca-Bessica Airfield,45.74325,11.83564,276,Veneto,Comunella (TV),
,airport,small,Campo di Volo Sturaro,45.1963889,12.0688889,10,Veneto,Cona (VE),
,airport,small,"Campo di Volo ""Banda Bassotti""",44.924444,11.05,36,Emilia-Romagna,Concordia sulla Secchia,
,closed,closed,"CdV ""38 N Fly Zone""",37.9458,15.8836,160,Calabria,Condofuri Marina,
,airport,small,Aviosuperficie Borgo Castelvecchio,43.0093333,11.7334667,1007,Tuscany,Contignano (SI),
,airport,small,Aviosuperficie Santa Bruna,42.382873,12.344158,859,Lazio,Corchiano (VT),
,airport,small,Campo di Volo Cordovado,45.83657,12.892801,,Friuli-Venezia Giulia,Cordovado (PN),
,airport,small,Aviosuperficie Corfinio,42.109588,13.84213,1181,Abruzzi,Corfinio (AQ),
,airport,small,Aviosuperficie Cornegliano,45.288893,9.491832,,Lombardy,Cornegliano Laudense (LO),
,airport,small,Campo di Volo Ali del Chienti,43.260263,13.518618,390,Marche,Corridonia (MC),
,airport,small,Skydive Iseo,45.81514,10.09552,,Trentino-Alto Adige,Costa Volpino,
,airport,small,Aviosuperficie Massarotti,37.190835,14.550211,1352,Sicily,Costabaira,
,airport,small,Aviosuperficie Franca,39.189857,16.670637,4393,Calabria,Cotronei (KR),
,airport,small,"Campo di Volo ""Creva Air Club""",44.737333,11.183633,29,Emilia-Romagna,Crevalcore (BO),
,airport,small,Campo di Volo Privato Curtatone,45.112207,10.705383,,Lombardy,Curtatone (MN),
,closed,closed,Aviosuperficie Mascioni,45.899167,8.71735,898,Lombardy,Cuvio (VA),
,airport,small,"Aviosuperficie ""Sa Doda""",39.361731,8.868309,88,Sardinia,Decimoputzu (CA),
,airport,small,Aviosuperficie Dorgali,40.348344,9.547495,587,Sardinia,Dorgali,
,airport,small,"Campo di Volo ""Avioclub Elice""",42.49048,13.995545,262,Abruzzi,Elice (PE),
,airport,small,Empoli Airstrip,43.72512,10.98294,82,Tuscany,Empoli,
,airport,small,Zampieri Airfield,46.404329,12.88536,3281,Friuli-Venezia Giulia,Enemonzo (UD),
,airport,small,"Aviosuperficie ""Cascina Valentino""",44.6975,7.401944,280,Piedmont,Envie (CN),
,airport,small,Aviosuperficie F. Rossi,43.34,12.826944,1348,Marche,Fabriano,
,airport,small,Campo di volo Alino,46.221329,11.169695,1729,Trentino-Alto Adige,Faedo,
,airport,small,Campo di Volo Felonica,44.9666667,11.3541667,,Lombardy,Felonica (MN),
,airport,small,Campo di Volo Alicocco,41.655,13.226389,190,Lazio,Ferentino (FR),
,airport,small,"Campo di Volo ""Il Grifo""",41.671186,13.278646,,Lazio,Ferentino (FR),
,airport,small,Aviosuperficie Tucano,42.132373,12.627056,75,Lazio,Fiano Romano (RM),
,airport,small,Aviosuperficie Fiano Romano,42.1447222,12.6333333,98,Lazio,Fiano Romano (RM),
,airport,small,Aviosuperficie Stella,44.95094,11.62722,6,Veneto,Fiesso Umbertiano (RO),
,airport,small,"Campo di Volo ""Fly and Go""",41.344754,15.526474,416,Apulia,Foggia (FG),
,airport,small,Campo di Volo Amyclae,41.314204,13.345913,1,Lazio,Fondi (LT),
,airport,small,Obiettivo Volare Aeroclub,44.888828,10.15991,141,Emilia-Romagna,Fontanellato (PR),
,airport,small,Campo di Volo Villafranca,44.291111,12.026111,100,Emilia-Romagna,Forlì,
,airport,small,Pranovi Airfield,45.371835,12.037153,1,Veneto,Fossò (VE),
,airport,small,Campo di Volo La Strozza,44.894653,11.669125,,Emilia-Romagna,Francolino (FE),
,airport,small,Campo Volo Falchi della Baraggia,45.446736,8.191519,150,Piedmont,fraz. SAN DAMIANO,
,airport,small,"Campo di Volo ""Sky Ufita""",41.046165,15.121532,1148,Campania,Frigento (AV),
LIRH,airport,small,Frosinone Air Base,41.6464,13.2998,,Lazio,Frosinone,
LIAR,airport,small,Furbara Air Base,41.994532,12.0135,,Lazio,Fubara,
,airport,small,Aviocaipoli Airfield,41.891615,12.783311,558,Lazio,Gallicano nel Lazio (RM),
,airport,small,Ali Venete Airfield,45.664881,11.807449,164,Veneto,Galliera Veneta (PD),
,airport,small,Gallipoli Flying Field,40.016111,18.023889,,Apulia,Gallipoli (LE),
,airport,small,Aviosuperficie Gattinara,45.605662,8.324289,922,Piedmont,Gattinara (VC),
,airport,small,Aviosuperficie Airone,37.113977,14.214206,82,Sicily,Gela,
,airport,small,Campo di Volo MedFly,37.1055,14.220061,85,Sicily,Gela (CL),
,airport,small,Campo di Volo Club Aeronautico Gela,37.11314,14.18929,,Sicily,Gela (CL),
,airport,small,Trike Team Cormorano,37.0994444,14.17,,Sicily,Gela (CL),
,airport,small,Campo di Volo Sardegna,39.621944,9.101944,1118,Sardinia,Gesico (CA),
,airport,small,Campo di Volo Natile,40.59059,16.769,974,Apulia,Ginosa (TA),
,airport,small,Campo di Volo UFO,41.512595,13.283537,301,Lazio,Giuliano di Roma (FR),
,airport,small,Campo di Volo Avioclub Ereo (CT07),37.19222,14.613297,1483,Sicily,Grammichele (CT),
,airport,small,Grave di Papadopoli Jonathan Field,45.783887,12.316765,141,Veneto,Grave di Papadopoli (TV),
,airport,small,Aviosuperficie Grecciano,43.628814,10.482438,6,Tuscany,Grecciano (LI),
,airport,small,Aviosuperficie Terra del Sole,42.775534,11.157271,50,Tuscany,Grosseto,
,airport,small,Aviosuperficie Grumento Nova,40.27009,15.91363,2007,Basilicata,Grumento Nova,
,airport,small,Aviosuperficie del Sagrantino,42.890278,12.533056,900,Umbria,Gualdo Cattaneo (PG),
,airport,small,Campo di Volo San Terenziano,42.85723,12.473179,1679,Umbria,Gualdo Cattaneo (PG),
,airport,small,Aviosuperficie Ali Umbre,43.27045,12.7422267,,Umbria,Gualdo Tadino (PG),
,airport,small,"Campo di Volo ""Aligubbio""",43.3173,12.5731,1377,Umbria,Gubbio (PG),
,airport,small,Aviosuperficie Vraglia,44.413209,11.747288,,Emilia-Romagna,Imola (BO),
,airport,small,K-Fly Flying Field,41.91128,15.81102,16,Apulia,Ischitella (FG),
,airport,small,Campo di Volo Aliveneta,45.250934,11.036059,75,Veneto,Isola della Scala (VR),
,airport,small,Campo di Volo Squadra Avvoltoi,45.241525,11.004096,,Veneto,Isola della Scala (VR),
,airport,small,Campo di Volo Aerdomus,41.9419444,12.1402778,98,Lazio,Ladispoli,
,airport,small,Aviosuperficie Falcone,41.101343,15.871805,495,Basilicata,Lavello (PZ),
LINL,airport,small,Lecce-San Cataldo Lepore Airfield,40.35974,18.297923,59,Apulia,Lecce (LE),
LINK,airport,small,Fondone Airfield,40.355883,18.232425,130,Apulia,Lecce (LE),
,airport,small,Ali di Classe Airfield,44.322803,12.308312,3,Emilia-Romagna,Lido di Classe (RA),
,airport,small,Volturno Fly Aviosuperficie,41.1575,14.3669444,63,Campania,Limatolo,
,airport,small,Le Panizze Airfield,45.419359,10.557346,337,Lombardy,Lonato (BS),
,airport,small,"Campo di Volo ""Il Pioniero""",45.083889,11.661667,36,Veneto,Lusia (RO),
,airport,small,Aviosuperficie Maccagno,44.42381,7.45917,,Piedmont,Maccagno (CN),
,airport,small,Campo di Volo Molinella,43.121511,12.20585,790,Umbria,Magione (PG),
,airport,small,Montemelino Airfield,43.103,12.253,731,Umbria,Magione (PG),
,airport,small,Aviosuperficie Maletto Fly,37.845756,14.869846,2756,Sicily,Maletto (CT),
,airport,small,"Campo di Volo ""Flying Buttero""",42.517352,11.319137,49,Tuscany,Manciano (GR),
,airport,small,Aviosuperficie Aerotre,40.449715,17.623776,256,Apulia,Manduria (TA),
,airport,small,"Campo di Volo ""Maraclub Icamar""",39.278216,9.25674,288,Sardinia,Maracalagonis,
,airport,small,Campo di Volo Elpifly,36.810908171,14.5447719097,220,Sicily,Marina di Ragusa,
,airport,small,"Campo di Volo ""Peter Pan""",42.97179,12.37247,574,Umbria,Marsciano (PG),
,closed,closed,Martina Franca Air Force Base,40.700001,17.333,1467,Apulia,Martina Franca,
,airport,small,Padova South Airfield,45.325086,11.872916,,Veneto,Maserà di Padova (PD),
,airport,small,Campo di Volo Vivoli,42.992253,10.806534,196,Tuscany,Massa Marittima (GR),
,airport,small,Torre Sant'Andrea Airfield,40.247662,18.436303,72,Apulia,Melendugno (LE),
,airport,small,Aviosuperficie Terranova,37.576624,12.944491,9,Sicily,Menfi,
,airport,small,"Private Ultralight Field ""Achille""",43.99883,12.10792,,Emilia-Romagna,Mercato Saraceno,
,airport,small,Campo di Volo Camemi,37.263261,14.626579,361,Sicily,Mineo (CT),
,airport,small,Volopuro,45.56399,8.54139,,Lombardy,Momo (NO),
,airport,small,Ali dello Stilaro Flying Field,38.424516,16.551874,,Calabria,Monasterace (RC),
,airport,small,"Campo di Volo Lucchina Fly Club""",45.3236111,8.0008333,951,Piedmont,Moncrivello,
,airport,small,Gsiesertal / Valle di Casies,46.7657842,12.1556392,,Trentino-Alto Adige,Monguelfo (BZ),
,airport,small,Campo di Volo Paretano Fly,40.82218,17.285711,1030,Apulia,Monopoli,
,airport,small,"Campo di Volo ""Da Domenico""",45.232351,11.797808,13,Veneto,Monselice (PD),
,airport,small,Campo di Volo Montalto di Castro,42.362738,11.656572,49,Lazio,Montalto di Castro (VT),
,airport,small,Montebelluna Airfield,45.748181,12.057152,275,Veneto,Montebelluna (TV),
,airport,small,Campo di Volo Cà Virginia,43.819065,12.677191,,Marche,Montecalvo in Foglia (PS),
,airport,small,Aviosuperficie Santa Anna,43.366053,13.457496,393,Marche,Montecassiano (MC),
,airport,small,Campo di Volo Montefalco,42.885358,12.693324,695,Umbria,Montefalco (PG),
,airport,small,Campo di Volo Montefano,43.42075,13.39928,249,Marche,Montefano (MC),
,closed,closed,Montegaldella Airfield,45.443407,11.651087,,Lombardy,Montegaldella (VI),
,airport,small,"Campo di Volo ""Fly Sabina""",42.1166667,12.7080556,,Lazio,Montelibretti,
,airport,small,Aviosuperficie Valcesano,43.70202,13.075323,167,Marche,Monteporzio (PS),
,airport,small,"Campo di Volo ""Cab Club""",45.057833,8.066817,764,Piedmont,Montiglio,
,airport,small,AS77 Airfield,45.961084,13.204394,,Friuli-Venezia Giulia,Mortegliano (UD),
,airport,small,Costa del Monte Flying Field,42.733207,13.891703,498,Abruzzi,Mosciano Sant'Angelo (TE),
,airport,small,Agriturismo Turus Airfield,45.923709,13.541016,177,Friuli-Venezia Giulia,Mossa (GO),
,airport,small,Musciano Private Airstrip,43.66433,10.72981,,Tuscany,Musciano,
,airport,small,Aviosuperficie S.Chiara,40.320012,17.812786,,Apulia,Nardo' (Santa Chiara),
,airport,small,"Campo di Volo ""Palazzone di Narni""",42.536609,12.553635,360,Umbria,Narni (TR),
,airport,small,Campo di Volo Calledro,42.464848,12.428715,190,Umbria,Narni (TR),
,airport,small,Aviosuperficie Carocci,42.247516,12.308311,784,Lazio,Nepi (VT),
,airport,small,Aviosuperficie Umiltà,42.192111,12.331621,787,Lazio,Nepi (VT),
,airport,small,Aviosuperficie Ali Nettuno,41.503775,12.701976,200,Lazio,Nettuno,
,airport,small,Aviosuperficie ARMA,41.464661,12.746693,59,Lazio,Nettuno (RM),
,airport,small,Beppe Rascaglia Flying Field,38.515556,15.942222,,Calabria,Nicotera (RC),
,airport,small,Campo di Volo Niscemi Parisi (CLNIS),37.163224,14.445664,1224,Sicily,Niscemi,
,airport,small,Pica Airfield,42.696389,13.916985,246,Abruzzi,Notaresco (TE),
,airport,small,Aviosuperfice Eloro,36.85641,15.08021,,Sicily,Noto (SR),
,airport,small,Campo di Volo Chatelair,45.74,7.480556,1500,Valle d'Aosta,Nus (AO),
,airport,small,Campo di Volo Collerotondo,42.289182,13.745423,1345,Abruzzi,Ofena,
,closed,closed,"Campo di Volo ""Girasole Vola""",39.956667,9.645278,30,Sardinia,Ogliastra,
,airport,small,Aviosuperficie La Smeraldina,41.05793,9.433446,,Sardinia,Olbia (OT),
,airport,small,Aviosuperficie Costa d'Argento,42.495016,11.238771,,Tuscany,Orbetello,
,airport,small,Campo di Volo AliPuglia,40.474421,17.609926,344,Apulia,Oria (BR),
,airport,small,Campo di Volo Linnarta,40.412091,9.723621,210,Sardinia,Orosei (NU),
LIKH,airport,small,Rivoli Avro Airfield,46.233786,13.072443,557,Friuli-Venezia Giulia,Osoppo (UD),
,airport,small,campo di volo privato masseria Antelmi,40.775846,17.591987,,Apulia,Ostuni,
,airport,small,Dune Airpark,40.794151,17.491959,,Apulia,Ostuni (BR),
,airport,small,Aviosuperficie Ocria,42.427255,12.457864,147,Umbria,Otricolo/Orte,
,airport,small,Ozzano private airfield,45.12039,8.35202,,Piedmont,Ozzano Monferrato,
,airport,small,Aviosuperficie Fly Team Paceco (TPPAC),37.960022,12.615416,217,Sicily,Paceco,
,closed,closed,Campo di Volo Pachino Fly Dream,36.726571,15.033717,23,Sicily,Pachino (SR),
,airport,small,campo di volo Pian Mune',44.6458,7.244931,4905,Piedmont,paesana,
,airport,small,Campo di Volo Palosco,45.600679,9.821166,547,Lombardy,Palosco (BG),
,closed,closed,Volo Libero Carnia Airfield,46.524053,13.004055,,Friuli-Venezia Giulia,Paluzza (UD),
,airport,small,Aviosuperficie Panicarola,43.064444,12.100556,902,Umbria,Panicale (PG),
,airport,small,Aviosuperficie Pantalla,42.871167,12.383417,486,Umbria,Pantalla (PG),
,airport,small,Pasiano Airfield,45.832273,12.593565,19,Friuli-Venezia Giulia,Pasiano (PN),
,airport,small,Aviosuperficie Arcadia,45.501483,10.788964,,Veneto,Pastrengo (VR),
,airport,small,Campo volo Eagles (CTPAT),37.520917,14.846016,361,Sicily,Paternò,
,airport,small,Fly Evolution Flying Field,45.981982,13.306923,187,Friuli-Venezia Giulia,Pavia di Udine (UD),
,airport,small,Aviosuperficie Pratello,43.55402,10.752517,173,Tuscany,Peccioli (PI),
,airport,small,Aviosuperficie Aliquirra,39.678,9.46299,,Sardinia,Perdasdefogu (OG),
,airport,small,Ali Piacenza Airfield,45.030556,9.605556,213,Emilia-Romagna,Piacenza (PC),
,airport,small,Aviosuperficie Alpi Marittime,44.391111,7.725556,1457,Piedmont,Pianfei (CN),
,airport,small,Campo di Volo Pietralunga,43.450539,12.401383,2263,Umbria,Pietralunga (PG),
,airport,small,Campo di Volo Marano,37.386467,14.143471,400,Sicily,Pietraperzia (EN),
,airport,small,Campo di Volo Phoenix,44.74714,11.34161,39,Emilia-Romagna,Pieve di Cento (BO),
,airport,small,Aviosuperficie Megolo,45.996254,8.303132,709,Piedmont,Pieve Vergonte,
,airport,small,Aviosuperficie Pantano,40.56167,15.7599,2625,Basilicata,Pignola,
,airport,small,Andrea Bozzo Airfield,44.863742,7.407068,984,Piedmont,Pinerolo Buriasco (TO),
,airport,small,Aviosuperficie di Meggiana,45.747211,8.040075,5344,Piedmont,Piode (VC),
,airport,small,Enrico Mattei Airfield,40.431896,16.5538,180,Basilicata,Pisticci (MT),
,airport,small,Pisticci Flying Field,40.399699,16.636972,,Basilicata,Pisticci (MT),
,airport,small,Aviosuperficie L'Aquila,42.300878,13.517175,1873,Abruzzi,Poggio Picenze (AQ),
,airport,small,Campo di Volo Volare Un Po ULM,45.016807,10.09893,100,Emilia-Romagna,Polesine Zibello,
,airport,small,Policoro Saline Flying Field,40.216161,16.731721,,Basilicata,Policoro (MT),
,airport,small,Pegaso Club 2000,41.35775,13.149013,,Lazio,Pontinia (LT),
,airport,small,Campo di Volo Pontinia Eagles,41.372995,13.136783,,Lazio,Pontinia (LT),
,airport,small,Campo di Volo Avio Pontina Fly,41.380947,13.180648,16,Lazio,Pontinia (LT),
,airport,small,Campo di Volo Platamona,40.813333,8.470278,26,Sardinia,Porto Torres (SS),
,closed,closed,Campo di Volo Verginese,44.690633,11.762535,,Emilia-Romagna,Portomaggiore (FE),
,airport,small,Campo di Volo San Sisto,44.847258,10.505502,98,Emilia-Romagna,Poviglio (RE),
,airport,small,Aviosuperficie Tabularia,44.84975,10.5662204,,Emilia-Romagna,Poviglio (RE),
,airport,small,Always Airfield,46.133883,13.278224,344,Friuli-Venezia Giulia,Povoletto (UD),
,airport,small,"Campo di Volo ""Il Volo""",40.421944,8.686667,,Sardinia,Pozzomaggiore (SS),
,airport,small,"Aviosuperficie ""Colli Euganei""",45.203258,11.793658,13,Veneto,Pozzonovo,
,airport,small,CdV Ass.Sp. Parvolo,45.815556,12.752222,16,Veneto,Pramaggiore,
,airport,small,Aviosuperficie Pravisdomini,45.824167,12.685278,,Friuli-Venezia Giulia,Pravisdomini (PN),
,airport,small,Campo di Volo Mantovana,44.728086,8.595741,738,Piedmont,Predosa (AL),
,airport,small,San Mauro Airfield,46.068333,13.366883,351,Friuli-Venezia Giulia,Premariacco (UD),
,airport,small,Monticchio Airfield,40.377022,17.386017,124,Apulia,Pulsano (TA),
,airport,small,Aviosuperficie I Pinguini,43.87137,10.94651,,Tuscany,Quarrata (PT),
,airport,small,Aviosuperficie Ramacca,37.390652,14.620249,524,Sicily,Ramacca,
,airport,small,Aviosuperficie Vallesanta,42.427317,12.805221,1246,Lazio,Rieti (RI),
,airport,small,"Campo di Volo ""Arbuschi""",45.05,9.1625,223,Lombardy,Robecco Pavese (PV),
,airport,small,"Campo di Volo ""Piana 5 Miglia""",41.879201,14.011133,4127,Abruzzi,Roccapia (AQ),
,airport,small,Giardini di Corcolle Airfield,41.900476,12.741902,324,Lazio,Roma,
,airport,small,Roma East Airfield,41.914691,12.769538,387,Lazio,Roma,
,airport,small,Aviosuperficie Ali Calabria,38.619603,15.955968,1870,Calabria,Rombiolo,
,airport,small,"Campo di Volo ""Rovasenda 2000""",45.5444444,8.2791667,787,Piedmont,Rovasenda,
,airport,small,Aviosuperficie Rovigo,45.031167,11.823667,22,Veneto,Rovigo (RO),
LISB,airport,small,Aviosuperficie Sabaudia,41.333611,13.021389,66,Lazio,Sabaudia (LT),
,airport,small,Campo di Volo Cianpioppo,45.015766,10.509881,82,Veneto,Sabbioneta (MN),
,airport,small,Aviosuperficie del Sole,40.624425,14.845842,,Campania,Salerno,
,airport,small,Campo di Volo Campore,44.827864,10.010782,459,Emilia-Romagna,Salsomaggiore Terme (PR),
,airport,small,Samolaco Airfield,46.234686,9.432771,689,Lombardy,Samolaco (SO),
,airport,small,"Campo di Volo ""San Dalmazio""",44.4125,10.843611,1870,Emilia-Romagna,San Dalmazio,
,airport,small,"Campo di Volo ""San Felice""",44.8325,11.120833,90,Emilia-Romagna,San Felice sul Panaro (MO),
,airport,small,Campo di Volo Fiorano Wings,45.11933,9.705951,,Lombardy,San Fiorano (LO),
,airport,small,Campo di Volo Monreale,39.583099,8.773265,,Sardinia,San Gavino Monreale (CA),
LIGT,airport,small,San Genesio Airfield,46.572786,11.307635,4259,Trentino-Alto Adige,San Genesio,
,airport,small,Campo di Volo Mantova Nord,45.172182,10.858224,75,Lombardy,San Giorgio (MN),
,airport,small,"Aviosuperficie ""Cap. Pilota Saverio Tedesco""",41.635,15.761667,380,Apulia,San Giovanni Rotondo (FG),
,airport,small,"Campo di Volo privato ""Le Prata""",43.74537,10.404967,10,Tuscany,San Giuliano Terme,
,airport,small,"Aviosuperficie ""Il Borro""",43.536111,11.705,900,Tuscany,San Giustino (AR),
,airport,small,"Aviosuperficie ""Tuscania""",42.410446,11.898665,591,Lazio,San Lazzaro (VT),
,airport,small,Aviosuperficie Privata Avielsar,39.498207,9.612477,,Sardinia,San Lorenzo di Villaputzu (CA),
,airport,small,Bibione Airfield,45.669654,13.039451,1,Veneto,San Michele al Tagliamento (VE),
,airport,small,Campo di Volo Tuscany Flight,43.695333,10.800533,65,Tuscany,San Miniato (PI),
,airport,small,Aviosuperficie Antares,40.504649,17.965087,167,Apulia,San Pietro Vernotico (BR),
,airport,small,Campo di Volo Mezzana Casati,45.098258,9.735884,141,Lombardy,San Rocco al Porto,
LIVS,airport,small,"Aviosuperficie ""Skydive Venice""",45.700009,12.763909,21,Veneto,San Stino di Livenza (VE),
,airport,small,Aviosuperficie San Teodoro,40.802484,9.65839,3,Sardinia,San Teodoro (OT),
,airport,small,"Aviosuperficie ""Il Gabbiano""",43.051711,10.552012,43,Tuscany,San Vincenzo (LI),
,airport,small,Campo di Volo Massimo Costa,43.092714,10.556267,111,Tuscany,San Vincenzo (LI),
,airport,small,"Campo di Volo ""Fly Club""",41.10457,14.45698,,Campania,Sant'Agata de'Goti (BN),
,airport,small,Campo di Volo Ala Jonica,37.9371,15.320702,235,Sicily,Sant'Alessio Siculo,
,airport,small,"Campo di Volo ""Air Country""",42.806283,13.785007,456,Abruzzi,Sant'Omero (TE),
,airport,small,"Campo di Volo ""Fant Air Club""",46.085023,12.068712,925,Veneto,Santa Giustina (BL),
,airport,small,Villa Farsetti Airfield,45.49917,12.03139,22,Veneto,Santa Maria di Sala (VE),
,airport,small,Campo di Volo Santa Maria Rossa,43.023963,12.387515,570,Umbria,Santa Maria Rossa (PG),
,airport,small,Campo di Volo Policastro,40.114874,15.495315,95,Campania,Santa Marina (SA),
,airport,small,Aviosuperficie Santarcangelo,44.032318,12.427928,,Emilia-Romagna,Santarcangelo di Romagna (RN),
,airport,small,Ca' Quinta di Sarego Airfield,45.432833,11.383333,114,Veneto,Sarego (VI),
,airport,small,Aviosuperficie Sassuolo,44.571667,10.78,311,Emilia-Romagna,Sassuolo (MO),
LICK,airport,small,Aviosuperficie Aeroporto Scalea,39.776188,15.811343,20,Calabria,Scalea (CS),
,airport,small,Campo di Volo Avio Lao,39.780336,15.809989,10,Calabria,Scalea (CS),
,airport,small,Campo di Volo AvioSciacca,37.5280556,13.0036111,200,Sicily,Sciacca (AG),
,airport,small,Campo di Volo Scortichino,44.8577778,11.3530556,,Emilia-Romagna,Scortichino,
,closed,closed,Campo di Volo Sedico,46.091613,12.089596,961,Veneto,Sedico (BL),
,airport,small,Sasso d'Oro Agrotourism Airfield,46.181389,12.8225,780,Friuli-Venezia Giulia,Sequals (PN),
,airport,small,Aviosuperficie del Parteolla,39.400471,9.139151,433,Sardinia,Serdiana,
,airport,small,"Campo di Volo ""Oasi del Volo""",39.407537,9.174867,,Sardinia,Serdiana (CA),
,airport,small,Campo di Volo AvioClub Centro Sicilia,37.450962,13.923111,,Sicily,Serra di Falco (CL),
,airport,small,Campo di Volo Umberto Nobile,41.235278,13.820556,22,Campania,Sessa Aurunca (CE),
,airport,small,Campo di Volo Settecrociari,44.13595,12.18976,147,Emilia-Romagna,Settecrociari,
,airport,small,Aviosuperficie Amici dell'Aria,39.327868,9.146871,472,Sardinia,Settimo San Pietro (CA),
,airport,small,Aviosuperficie Divinangelo,41.471944,13.023611,10,Lazio,Sezze,
,closed,closed,Campo di Volo Dragons Fly,39.738536,16.457015,16,Calabria,Sibari (CS),
,airport,small,Aviosuperficie Sibari Fly,39.757418,16.435418,35,Calabria,Sibari Scalo (CS),
,airport,small,"Aviosuperficie ""La Tana del Volo""",39.269133,8.771811,272,Sardinia,Siliqua (CA),
,airport,small,Campo di Volo Valdichiana,43.214021,11.823111,810,Tuscany,Sinalunga (SI),
,airport,small,"Campo di Volo ""Ali del Po""",44.97213,10.293684,,Emilia-Romagna,Sissa (PR),
,airport,small,Campo di Volo A.S. Ulcor,39.9787,8.6792,157,Sardinia,Solarusa (OR),
,airport,small,Campo di Volo Carzeto,44.96,10.1838889,20,Emilia-Romagna,Soragna (PR),
,airport,small,"Aviosuperficie ""Aquile Randagie""",45.165668,11.035167,66,Veneto,Sorga (VR),
,airport,small,Aviosuperficie Alisoriano,42.433658,12.292147,985,Lazio,Soriano nel Cimino (VT),
,airport,small,Campo di Volo Le Streghe,45.395556,8.706389,410,Piedmont,Sozzago (NO),
,airport,small,Albatros Airfield,45.770727,12.244068,164,Veneto,Spresiano (TV),
,airport,small,Aviosuperficie Stintino,40.88295,8.25418,,Sardinia,Stintino (SS),
,airport,small,Masseria Macri Airfield,40.054607,18.214738,,Apulia,Supersano (LE),
,airport,small,Aviosuperficie Valicella,42.21873,12.24846,862,Lazio,Sutri,
,airport,small,"Campo di Volo ""La Fenice""",44.999827,10.71339,66,Lombardy,Suzzara (MN),
,airport,small,Tarquinia San Giorgio Airfield,42.192687,11.724573,1,Lazio,Tarquinia (VT),
,airport,small,Campo di Volo Albatros,37.972478,13.77335,,Sicily,Termini Imerese (PA),
,airport,small,Molise Ultravolo Airfield,41.97547,15.02005,3,Molise,Termoli (CB),
,airport,small,Campo di Volo Francesco Cantelmo,42.4886111,11.7986111,,Lazio,Tessenano (VT),
,airport,small,campo di volo EUROFLY,45.690507,11.746809,,Veneto,Tezze sul Brenta (VI),
,airport,small,Campo di Volo Thiesi,40.53542,8.6055,,Sardinia,Thiesi,
,airport,small,Campo di Volo Titta,43.4912038,12.2428002,,Umbria,Titta,
,airport,small,Campo di Volo Cavola,44.39646,10.53613,1768,Emilia-Romagna,Toano (RE),
LIVD,airport,small,Dobbiaco-Toblach Airstrip,46.727021,12.230723,4068,Trentino-Alto Adige,Toblach (Dobbiaco) (BZ),
,airport,small,"Campo di Volo ""Condor Men""",43.224706,13.329554,629,Marche,Tolentino (MC),
,airport,small,Monti della Tolfa Airfield,42.0188,11.9827,46,Lazio,Tolfa (RM),
,airport,small,La Quercia,40.963053,16.633016,1181,Apulia,Toritto (BA),
,airport,small,"Campo di Volo ""Punto Volo""",45.437987,9.60738,301,Lombardy,Torlino Vimercata (CR),
,airport,small,Aviosuperficie Alfina,42.739667,11.983333,1811,Umbria,Torre Alfina (TR),
,airport,small,"Aviosuperficie ""Città di Tortona""",44.938436,8.865881,315,Piedmont,Tortona (AL),
,airport,small,Aviosuperficie Torre Foghe,40.1833333,8.4694444,295,Sardinia,Tresnuraghes (OR),
,airport,small,"Campo di Volo ""Le Tartarughe Volanti""",45.609722,9.486667,646,Lombardy,Trezzo d'Adda (MI),
,airport,small,Prosecco Airfield,45.703333,13.759722,820,Friuli-Venezia Giulia,Trieste,
,airport,small,Pista Vasa Airfield,41.046634,8.997749,600,Sardinia,Trinità d'Agultu e Vignola (SS),
,airport,small,Ultralight Friuli Airfield,45.93098,13.362,,Friuli-Venezia Giulia,Trivignano (UD),
,airport,small,Campo di Volo Poggio Primavera,42.366412,11.796702,485,Lazio,Tuscania (VT),
,airport,small,Gemini Flying Field,39.8948,18.1904,323,Apulia,Ugento (LE),
,airport,small,Valeggio sul Mincio Airfield,45.317432,10.708423,,Veneto,Valeggio sul Mincio (VR),
,airport,small,Campo di Volo L'Airone,45.153393,8.656568,,Lombardy,Valle Lomellina (PV),
,airport,small,Campo di Volo Valledoria,40.929768,8.812227,29,Sardinia,Valledoria (SS),
,airport,small,Campo di Volo Vallermosa,39.3561,8.7919,235,Sardinia,Vallermosa (CA),
,airport,small,Valmontone Airfield,41.765562,12.864436,1158,Lazio,Valmontone (RM),
,airport,small,"Aviosuperficie ""Marc Ingegno""",45.778056,8.268611,1411,Piedmont,Varallo (VC),
,airport,small,Vasto Flying Field,42.155381,14.699362,197,Abruzzi,Vasto (CH),
,airport,small,Aviosuperficie Alituscia,42.229167,12.120833,1270,Lazio,Vejano (VT),
LILW,airport,small,Venaria Reale Mario Santi Airfield,45.130127,7.612008,,Piedmont,Venaria Reale (TO),
,airport,small,Vervò Airfield,46.313801,11.111898,3080,Trentino-Alto Adige,Vervò (TN),
,airport,small,Campo di Volo Gianni Cerutti,45.34921,8.64632,393,Piedmont,Vespolate (NO),
,airport,small,Aviosuperficie Renzo Storai,43.96583,11.458056,889,Tuscany,Vicchio del Mugello (FI),
,airport,small,"Aviosuperficie ""San Giuseppe""",45.85649,12.06555,419,Veneto,Vidor (TV),
,airport,small,"Campo di Volo ""Icaro Village""",44.842996,11.485068,66,Emilia-Romagna,Vigarano Mainarda (FE),
,airport,small,"Aviosuperficie ""Natale/Battistoni""",45.334722,8.824722,357,Lombardy,Vigevano (PV),
,airport,small,Casera Razzo Altiport,46.476822,12.614758,5766,Veneto,Vigo di Cadore (BL),
,airport,small,ANGIALE,44.8336111111,7.53055555556,843,Piedmont,Vigone (TO),
,airport,small,Sterzing / Vipiteno Airfield,46.883764,11.441338,3116,Trentino-Alto Adige,Vipiteno (BZ),
,airport,small,Aviosuperficie Blue Silo,45.8872222,12.6277778,31,Friuli-Venezia Giulia,Visinale di Pasiano,
,airport,small,"Campo di Volo ""Dream Fly""",45.930381,12.257512,,Veneto,Vittorio Veneto (TV),
,airport,small,Aviosuperficie La Selva,41.155556,14.21,196,Campania,Vitulazio,
,airport,small,"Campo di Volo ""Ali del Montello""",45.76157,12.16361,226,Veneto,Volpago del Montello (TV),
,airport,small,Campo di Volo Luciano Borgonovi,45.18698,9.04292,203,Lombardy,Zerbolò,
,airport,small,Aviosuperficie Chiusa-Zerfaliu,39.989504,8.723266,190,Sardinia,Zerfaliu,
,airport,small,Campo di Volo Il Grifo,38.637255,15.94775,630,Calabria,Zungri,
,heliport,small,Celenza Valfortore Heliport,41.564832,14.998817,,Apulia,,
,closed,closed,Campo di volo Marchese,41.407394,15.29284,,Apulia,,
,heliport,small,Eliporto Isola di S.Nicola,42.124193,15.510389,,Apulia,,
,heliport,small,Eliporto di mergenza ospedale antonio perrino,40.625189,17.915654,,Apulia,,
,heliport,small,Elisuperficie Ospedale Madonna delle Grazie,40.65293,16.61362,,Apulia,,
,heliport,small,Eliporto di Gela,37.066235,14.282138,,Sicily,,
,heliport,small,Eliporto di Lanusei,39.890822,9.50585,,Sardinia,,
,heliport,small,Elisuperficie Arturo Santi,44.664704,8.298604,,Piedmont,,
,closed,closed,San Leo,43.9194444,12.32,,Marche,,
,closed,closed,Vigna di Valle,42.0844444,12.2183333,886,Lazio,,
,heliport,small,Heliport Acquaviva hospital,40.864702,16.801379,,Apulia,Acquaviva delle fonti,
,heliport,small,Luxottica Heliport,46.278961,12.030839,,Veneto,Agordo,
,heliport,small,Villa Las Tronas Helipad,40.549793,8.317852,,Sardinia,Alghero,
,heliport,small,Alicudi Porto Heliport,38.532211,14.359827,,Sicily,Alicudi Porto (ME),
,heliport,small,Elisuperficie nido delle aquile,40.938208,16.495076,,Apulia,Altamura,
,heliport,small,Elisuperficie di emergenza,40.9009,16.620909,,Apulia,Altamura,
,heliport,small,Eliporto,40.819787,16.470737,,Apulia,Altamura,
,heliport,small,Anacapri Heliport,40.558608,14.201355,,Campania,Anacapri (NA),
,heliport,small,Air Service Center,45.06828,9.37491,,Lombardy,Arena di Po (PV),
,heliport,small,Elisuperficie Pennile di Sotto,42.8561,13.596429,,Marche,Ascoli Piceno AP,
,closed,closed,Castelluccio Airfield,41.319914,15.544642,,Apulia,Ascoli Satriano (FG),
,closed,closed,Campo di Volo Assoro,37.56181,14.496374,237,Sicily,Assoro,
,heliport,small,Elibase Pegaso 1 (Santa Maria Annunziata Hospital),43.730732,11.304224,,Tuscany,Bagno a Ripoli,
,closed,closed,Campo di volo L'Airone,40.972203,16.909364,673,Apulia,Bari,
,heliport,small,Bari Guardia di Finanza Heliport,41.138072,16.775689,,Apulia,Bari,
,heliport,small,Bari Fire Department Heliport,41.134553,16.760974,,Apulia,Bari,
,heliport,small,Bari Police Heliport,41.134322,16.760116,,Apulia,Bari,
,heliport,small,Bari Carabinieri Heliport,41.137914,16.781691,,Apulia,Bari,
,heliport,small,Bari Coast Guard Heliport,41.13808,16.847448,,Apulia,Bari,
,heliport,small,Eliporto Ospedale di Bari,41.112938,16.858177,,Apulia,Bari,
,heliport,small,Eliporto esercito italiano,41.096721,16.879592,,Apulia,Bari,
,heliport,small,Eliporto di emergenza,41.314728,16.253457,,Apulia,Barletta,
,heliport,small,San Martino Hospital Heliport,46.138985,12.200123,1300,Veneto,Belluno,
,heliport,small,Heliport Colli di san fermo,45.743134,9.940835,,Lombardy,Bergamo,
,heliport,small,Borgosesia Hospital Heliport,45.712414,8.263298,1237,Piedmont,Borgosesia,
,heliport,small,Bormio Heliport,46.454484,10.365125,3848,Lombardy,Bormio (SO),
,heliport,small,Eliporto Leanorado SPA confindustria,40.673331,17.921813,,Apulia,Brindisi,
,closed,closed,Cerrina Airfield,45.005,7.492778,,Piedmont,Bruino (TO),
,closed,closed,Campo di Volo Ali Val di Neto,39.184793,17.107129,,Calabria,Bucchi (KR),
,heliport,small,Ospedale Versilia Helipad,43.91513,10.221968,,Tuscany,Camaiore,
,closed,closed,"Campo di Volo ""Le Risare""",45.574906,11.84464,78,Veneto,Campo San Martino (PD),
,closed,closed,Canne Airfield,41.932778,15.070556,,Apulia,Campomarino (CB),
,closed,closed,Madna Airfield,41.922778,15.075278,,Apulia,Campomarino (CB),
,closed,closed,Ramitelli Airfield,41.908333,15.116667,,Apulia,Campomarino (CB),
,closed,closed,Ali sul Graticolato Airfield,45.558333,11.973889,59,Veneto,Camposanpiero (PD),
,closed,closed,Airbase Pantanella,41.136989,15.920187,,Apulia,Canosa di Puglia,
,heliport,small,Capraia Heliport,43.046217,9.844325,,Tuscany,Capraia Isola (LI),
,closed,closed,Aviosuperficie Coraine,45.588562,10.755719,,Veneto,Caprino Veronese (VR),
,heliport,small,Ischia Casamicciola Terme Heliport,40.750963,13.898701,,Campania,Casamicciola Terme (NA),
LIDK,heliport,small,Casarsa della Delizia Air Base,45.953167,12.816717,125,Friuli-Venezia Giulia,Casarsa della Delizia (UD),
,heliport,small,Castel Gandolfo Heliport,41.732928,12.658055,,Lazio,Castel Gandolfo,
,heliport,small,Heliport Castellana grotte,40.883284,17.148167,,Apulia,Castellana Grotte,
,closed,closed,Aviosuperficie Valentino,44.437222,7.660556,1457,Piedmont,Castelletto Stura (CN),
,closed,closed,Silvia-Giovanni Airfield,45.263771,10.533114,151,Lombardy,Ceresara (MN),
,heliport,small,Eliporto di soccorso,41.272759,15.917548,,Apulia,Cerignola,
,closed,closed,Cerignola Airfield,41.242339,15.80525,,Apulia,Cerignola (FG),
,closed,closed,Giulia Airfield,41.304167,15.841667,,Apulia,Cerignola (FG),
,closed,closed,San Giovanni Airfield,41.239417,15.801825,,Apulia,Cerignola (FG),
,closed,closed,Torretto Airfield,41.181944,15.763889,,Apulia,Cerignola (FG),
,closed,closed,Campo di Volo Malabaila,44.678889,7.818611,935,Piedmont,Cherasco (CN),
,closed,closed,Fly Igor,45.298056,8.0075,950,Piedmont,Cigliano  (VC),
LILS,heliport,small,Clusone Heliport,45.883888244628906,9.966388702392578,1900,Lombardy,Clusone,
,heliport,small,Codera Heliport,46.23743,9.472632,2657,Lombardy,Codera (SO),
,closed,closed,Campo di Volo Corbetta,44.807691,12.105863,6,Emilia-Romagna,Codigoro (FE),
,heliport,small,Elisoccorso Provincia di Como,45.771878,9.043403,,Piedmont,Como,
LILY,seaplanebase,small,Como (Idroscalo - Water Ad) Hidroport,45.814701,9.06972,663,Lombardy,Como (CO),
,closed,closed,Aviosuperficie Il Gabbione,44.50326,11.81415,9,Emilia-Romagna,Conselice,
,closed,closed,Campo di volo Condor,40.242331,18.034047,,Apulia,Copertino,
,closed,closed,"Aviosuperficie ""Bore di Chienti""",43.261156,13.563302,200,Marche,Corridonia (MC),
,closed,closed,Cossato,45.653333,8.204444,804,Piedmont,Cossato (BI),
,closed,closed,CASCINA GRECIA,45.35,7.783333,354,Piedmont,Cuceglio (TO),
,closed,closed,Campo di volo Cutrofiano,40.102031,18.243635,,Apulia,Cutrofiano,
,closed,closed,Desenzano del Garda Seaplane Base,45.464657,10.555984,,Lombardy,Desenzano del Garda (BS),
,heliport,small,Edolo Heliport,46.173812,10.334809,2175,Lombardy,Edolo (BS),
,closed,closed,"Dune Aeroclub Città Bianca ""Francesco Santoro""",40.772189,17.637754,,Apulia,Fasano,
,heliport,small,Helipad Masseria del Cardinale,40.801994,17.443864,,Apulia,Fasano,
,heliport,small,Isola Formica Heliport,37.989091,12.424335,,Sicily,Favignana (TP),
,heliport,small,Levanzo Heliport,37.992772,12.338437,,Sicily,Favignana (TP),
,heliport,small,Marettimo Heliport,37.970069,12.070802,,Sicily,Favignana (TP),
,heliport,small,Favignana Heliport,37.914543,12.318392,,Sicily,Favignana (TP),
,heliport,small,Filicudi Porto Heliport,38.557854,14.582586,,Sicily,Filicudi Porto (ME),
,heliport,small,Alidaunia Foggia Heliport,41.423977,15.533971,278,Apulia,Foggia,
,heliport,small,Eliporto,41.424399,15.639499,,Apulia,Foggia,
,closed,closed,Celone Airfield,41.551111,15.558889,,Apulia,Foggia (FG),
,closed,closed,Tortorella Airfield,41.484722,15.652778,,Apulia,Foggia (FG),
,heliport,small,Follonica Heliport,42.920684,10.764557,,Tuscany,Follonica (LI),
,heliport,small,Fraciscio Heliport,46.40492,9.3642,4423,Lombardy,Fraciscio (SO),
,heliport,small,Heliport Military,40.244985,18.136781,,Apulia,Galatina,
,heliport,small,Cascina Costa Agusta Heliport,45.632557,8.740717,722,Lombardy,Gallarate,
,closed,closed,Aviosuperficie Santa Lucia,42.3583333,12.4277778,,Lazio,Gallese (VT),
,heliport,small,Gallipoli Heliport,40.056785,17.982012,,Apulia,Gallipoli,
,heliport,small,Heliport turistic gallipoli,40.023905,18.022041,,Apulia,Gallipoli,
,heliport,small,Helipad  Salento Helicopters,40.067439,18.002,,Apulia,Gallipoli,
,heliport,small,Gorgona Heliport,43.425819,9.900663,,Tuscany,Gorgona Scalo (LI),
,heliport,small,Moriggia Pelascini Hospital Heliport,46.14063,9.30167,699,Lombardy,Gravedona (CO),
,heliport,small,Eliporto di Grottaglie,40.520956,17.39846,,Apulia,Grottaglie,
,heliport,small,Eliporto militare marina italiana,40.515606,17.408025,,Apulia,Grottaglie,
,closed,closed,Campo di Volo Elio Zambrini,44.4323333,11.71815,,Emilia-Romagna,Imola (BO),
,closed,closed,"Campo di Volo ""Amanti Volo Ultraleggero""",44.326615,11.659263,,Emilia-Romagna,Imola (BO),
,closed,closed,Giannutri Airfield,42.254584,11.116147,46,Tuscany,Isola del Giglio (GR),
,heliport,small,Giannutri Heliport,42.25347,11.100215,,Tuscany,Isola del Giglio (GR),
,heliport,small,Giglio Heliport,42.365898,10.913201,,Tuscany,Isola del Giglio (GR),
,heliport,small,Palmanova Hospital Heliport,45.90961,13.33654,92,Friuli-Venezia Giulia,Jalmicco (UD),
,heliport,small,Ospedale di Jesolo Helipad,45.509314,12.658936,,Veneto,Jesolo,
,heliport,small,Heliport hospital Lauria,40.044471,15.827864,,Basilicata,Lauria,
,closed,closed,Campo di volo La Fenice,40.377356,18.11211,,Apulia,Lecce,
,closed,closed,Lesina Airfield,41.863333,15.311389,,Apulia,Lesina (FG),
,closed,closed,Biferno Airfield,41.964724,15.054531,,Apulia,Lido Campomarino (CB),
,heliport,small,Linosa Heliport,35.862175,12.856205,,Sicily,Linosa (AG),
,heliport,small,Lipari City Hospital Helipad,38.462267,14.953542,,Sicily,Lipari (ME),
,heliport,small,Livigno Heliport,46.51764,10.12533,6083,Lombardy,Livigno (SO),
,closed,closed,Aviosuperficie di Lonato,45.394566,10.566931,,Lombardy,Lonato (BS),
,closed,closed,Lucera Airfield,41.497978,15.419444,,Apulia,Lucera (FG),
,closed,closed,Salsola Airfield,41.548333,15.4575,,Apulia,Lucera (FG),
,closed,closed,Vincenzo Airfield,41.411111,15.424444,,Apulia,Lucera (FG),
,heliport,small,Madesimo Heliport,46.443232,9.363838,5259,Lombardy,Madesimo (SO),
,heliport,small,Malfa Heliport,38.579772,14.827852,,Sicily,Malfa (ME),
,heliport,small,Eliporto aereotre,40.448041,17.622639,,Apulia,Manduria,
,closed,closed,Mil Airport Orta Nova Borgo Mezzanone,41.40601,15.728517,124,Apulia,Manfredonia,
,seaplane_base,small,Idroscalo di Manfredonia,41.618622,15.914007,,Apulia,Manfredonia,
,closed,closed,Pantanella Airfield,41.495833,15.791667,,Apulia,Manfredonia (FG),
,closed,closed,Mantova Airport,45.135834,10.794444,57,Lombardy,Mantova,
,heliport,small,Heliport Hospital maratea,39.998838,15.719123,,Basilicata,Maratea,
,heliport,small,Monte Capanne Heliport,42.77163,10.168296,,Tuscany,Marciana (LI),
,closed,closed,Marcon Airfield,45.565275,12.322812,,Veneto,Marcon (VE),
LIBH,heliport,small,Marina di Ginosa Heliport,40.424107,16.887501,26,Apulia,Marina di Ginosa,
,seaplane_base,small,Idrosuperficie di Marone,45.741289,10.091254,,Lombardy,Marone,
,heliport,small,Marradi Fire Brigade Helipad,44.089273,11.634656,,Tuscany,Marradi (FI),
,heliport,small,Helipad military,40.643136,17.206854,,Apulia,Martina Franca,
,closed,closed,Aviosuperficie Villa Fontana,44.51585,11.59218,56,Emilia-Romagna,Medicina,
,heliport,small,Melendugno Heliport,40.246606,18.436303,,Apulia,Melendugno (LE),
,heliport,small,Elipadana Heliport,45.488697,9.196184,,Lombardy,Milan,
,heliport,small,Solbiate Olona Heliport,45.643085,8.854013,804,Lombardy,Milan,
,heliport,small,San Raffaele Hospital Heliport,45.504324,9.260273,,Lombardy,Milano,
,heliport,small,Eliporto il Melograno,40.922345,17.276983,,Apulia,Monopoli,
,heliport,small,Helipad Paretano,40.822761,17.283141,,Apulia,Monopoli,
,closed,closed,Campo Volo Costa D'argento,42.430624,11.190423,,Tuscany,Monte Argentario,
,closed,closed,Campo di Volo Albatros,43.754752,12.954763,164,Marche,Montemaggiore (PS),
,closed,closed,AIRBAS Airfield,40.565556,16.5925,213,Basilicata,Montescaglioso,
,heliport,small,Montespluga Heliport,46.48898,9.33744,6253,Lombardy,Montespluga,
,closed,closed,Zagavia Airfield,45.359762,10.65676,512,Lombardy,Monzambano (MN),
,seaplane_base,small,Idroscalo di Santa Maria al Bagno,40.128704,17.994586,,Apulia,Nardo',
,closed,closed,I Grifoni Airfield,45.910358,13.371978,95,Friuli-Venezia Giulia,Nogaredo al Torre (UD),
,heliport,small,Novate Heliport,46.21449,9.45288,748,Lazio,Novate Mezzola (SO),
,closed,closed,Aviosuperficie Airone,45.588056,9.003751,,Lombardy,Origgio (VA),
,heliport,small,Ortona Heliport,42.327173,14.37252,,Abruzzi,Ortona,
,heliport,small,Eliporto le dune,40.771296,17.637691,,Apulia,Ostuni,
,closed,closed,Torre S. Emiliano Airfield,40.110195,18.49072,,Apulia,Otranto (LE),
,heliport,small,Otranto Helicopter Base,40.115959,18.499753,,Apulia,Otranto (LE),
,heliport,small,Padua Hospital Helipad,45.401134,11.891772,56,Veneto,Padova,
,heliport,small,Panarea South Heliport,38.630278,15.070763,,Sicily,Panarea (ME),
,heliport,small,Air Panarea Heliport,38.645999,15.07075,,Sicily,Panarea (ME),
,heliport,small,Eliporto Peschici,41.92814,16.012815,,Apulia,Peschici,
,closed,closed,Aviosuperficie Cà Lunga,44.520924,8.188011,1175,Piedmont,Pezzolo Valle Uzzone (CN),
,closed,closed,Il Ranch Airfield,45.545833,11.761944,56,Veneto,Piazzola sul Brenta (PD),
,closed,closed,Campo di Volo Condor,42.9691667,10.6197222,10,Tuscany,Piombino,
,closed,closed,Campo di Volo Policoro,40.170967,16.6628,,Basilicata,Policoro (MT),
,closed,closed,Campo di volo Pogliano Fly,41.00888,17.177821,85,Apulia,Polignano,
,heliport,small,Pontives Heliport,46.586877,11.630389,3631,Trentino-Alto Adige,Pontives,
,heliport,small,Ponza Heliport,40.899427,12.948195,,Lazio,Ponza (LT),
,heliport,small,Palmarola Helipad,40.939667,12.855194,,Lazio,Ponza (LT),
,closed,closed,Porto Cesareo,40.292833,17.834566,,Apulia,Porto Cesareo,
,heliport,small,Portoferraio Hospital Heliport,42.815918,10.319657,,Tuscany,Portoferraio (LI),
,heliport,small,Eliporto Giorgio La Pira,36.718499,14.826982,,Sicily,Pozzallo,
,closed,closed,Campo di Volo Pozzilli,41.50223,14.08533,,Molise,Pozzilli,
,heliport,small,Procida Heliport,40.750172,14.013681,,Campania,Procida (NA),
,heliport,small,ENI,44.47541,12.27168,,Emilia-Romagna,Ravenna,
,heliport,small,"Ospedale ""Infermi"" di Rimini Heliport",44.045728,12.58962,,Emilia-Romagna,Rimini,
,heliport,small,Fiera di Rimini Heliport,44.072447,12.519082,,Emilia-Romagna,Rimini,
,heliport,small,Palmaiola Heliport,42.865709,10.473906,,Tuscany,Rio (LI),
,closed,closed,Aviosuperficie Settefrati,45.201775,10.662813,,Lombardy,Rivalta sul Mincio (MN),
LIAD,heliport,small,Capitalia Heliport,41.824691,12.381729,116,Lazio,Rome,
LIRC,heliport,small,Centocelle Heliport,41.8729,12.5637,158,Lazio,Rome,
,heliport,small,Fonte di Papa Heliport,42.047787,12.568338,,Lazio,Rome,
,heliport,small,Chiesa del Presidio Heliport,41.801993,12.498981,190,Lazio,Rome,
,closed,closed,Campo di Volo Rovellasca,45.675833,9.064444,,Lombardy,Rovellasca (MB),
,closed,closed,Campo di volo Masseria Modesti,40.988856,16.407877,1575,Apulia,Ruvo di puglia,
,heliport,small,Elifly International,45.906061,10.22406,,Lombardy,Sacca (Brescia),
,heliport,small,San Benedetto del Tronto Heliport,42.923231,13.889487,,Marche,San Benedetto del Tronto (Ascoli piceno) AP,
,heliport,small,Truzzo Heliport,46.358881,9.319786,6595,Lombardy,San Giacomo Filippo (SO),
,heliport,small,Eliporto S.G.Rotondo,41.693749,15.710771,1801,Apulia,San Giovanni Rotondo,
,closed,closed,San Leo Heliport,43.896713,12.350816,,Emilia-Romagna,San Leo,
,closed,closed,San Pancrazio Air Base,40.437947,17.857062,,Apulia,San Pancrazio Salentino (BR),
,closed,closed,Campo di volo Area 51 2,40.5306,18.053026,,Apulia,San Pietro Vernotico (Campo di Mare),
,closed,closed,Aviosuperficie Deltaland,44.8714,10.9807,46,Emilia-Romagna,San Possidonia (MO),
,heliport,small,Eliporto,41.632838,15.389813,,Apulia,San Severo,
,closed,closed,San Severo Airfield,41.7125,15.43,,Apulia,San Severo (FG),
,closed,closed,Triolo Airfield,41.625,15.458333,,Apulia,San Severo (FG),
,heliport,small,Mese Valchiavenna Heliport,46.31269,9.38766,1005,Lombardy,San Vittore (SO),
,heliport,small,Heliport la Sunrisa,40.714484,14.526114,,Campania,San''t Antonio Abate,
,closed,closed,"Aviosuperficie ""Val Vibrata 2""",42.80427,13.794678,433,Abruzzi,Sant'Omero (TE),
,heliport,small,Eliporto Sant'anna,40.322937,17.824878,,Apulia,Santa Chiara,
,closed,closed,"Campo di Volo ""Il Cherubino""",37.59441,14.880252,720,Sicily,Santa Maria di Licodia,
,closed,closed,Campo di Volo Dedalo,42.92801,10.840792,,Tuscany,Scarlino (GR),
,closed,closed,"Campo di Volo ""Pajaro Loco""",45.867979,12.792206,197,Friuli-Venezia Giulia,Sesto al Reghena (PN),
,heliport,small,Eliporto di Siracusa Pantanelli,37.061536,15.267566,,Sicily,Siracusa,
,heliport,small,Sondalo Heliport,46.3335,10.33147,3337,Lombardy,Sondalo (SO),
,heliport,small,Sondrio City Hospital Heliport,46.17158,9.879853,,Lombardy,Sondrio (SO),
,heliport,small,HeliSorrento Heliport,40.614109,14.362,,Campania,Sorrento (NA),
,closed,closed,Spinazzola Airfield,40.949167,16.229444,,Apulia,Spinazzola (BT),
,closed,closed,Stornara Airfield,41.290108,15.740617,,Apulia,Stornara (FG),
,heliport,small,Stromboli Heliport,38.799552,15.240425,,Sicily,Stromboli (ME),
,closed,closed,Cassibile Airfield,36.981791,15.239755,58,Sicily,Syracuse,
,heliport,small,Eliporto militare,40.447845,17.252242,,Apulia,Taranto,
,heliport,small,Eliporto militare,40.469739,17.27628,,Apulia,Taranto,
,seaplane_base,small,Idroscalo di Taranto,40.477113,17.225393,,(unassigned),Taranto,
,closed,closed,Aviosuperficie Privata Teggiano,40.415529,15.53648,,Campania,Teggiano (SA),
,heliport,small,Elimast Temù Heliport,46.25121,10.4876,3910,Lombardy,Temù (BS),
,closed,closed,Idroscalo di Ternate,45.779714,8.694788,,(unassigned),Ternate,
,heliport,small,Tirano Heliport,46.21887,10.18223,1591,Lombardy,Tirano (SO),
,heliport,small,Elisuperficie la Quercia,40.963263,16.632791,,Apulia,Toritto,
,closed,closed,Campo di volo Area 51 Torre Santa Susanna,40.503056,17.7625,,Apulia,Torre Santa Susanna,
,closed,closed,Sterparone Airfield,41.601744,15.306667,,Apulia,Torremaggiore (FG),
,heliport,small,Eliporto Militare,41.253178,16.413456,,Apulia,Trani,
,closed,closed,Trapani–Chinisia Airport / Borizzo Airfield,37.896458,12.53907,,Sicily,Trapani (TP),
,closed,closed,Alicusa,37.612908,12.700109,,Sicily,Trapani - Campobello di Mazara,
,heliport,small,SUEM Heliport Treviso,45.655348,12.263585,,Veneto,Treviso (TV),
,heliport,small,Cattinara Hospital Heliport,45.63288,13.83014,845,Friuli-Venezia Giulia,Trieste (TR),
,heliport,small,Lingotto Heliport,45.030898,7.664602,,Piedmont,Turin,
,heliport,small,Ustica Heliport,38.707215,13.177478,,Sicily,Ustica (PA),
LIMH,heliport,small,Pian Rosà Heliport,45.933422,7.709344,11443,Valle d'Aosta,Valtournenche,
,closed,closed,Sinello Airfield,42.173611,14.6625,,Abruzzi,Vasto (CH),
,heliport,small,Santi Giovanni & Paolo Civil Hospital Helipad,45.440485,12.344561,95,Veneto,Venice,
,heliport,small,Mirano Hospital Heliport,45.500707,12.113037,26,Veneto,Venice,
,closed,closed,Venosa Airfield,40.997028,15.873611,,Basilicata,Venosa (PZ),
,heliport,small,Santo Stefano Heliport,40.789318,13.453112,,Lazio,Ventotene (LT),
,heliport,small,Ventotene Heliport,40.800864,13.430235,,Lazio,Ventotene (LT),
,closed,closed,Aviosuperficie Naviglio Grande,45.397222,8.97,370,Lombardy,Vermezzo (MI),
,closed,closed,Campo Volo Angela e Sara,45.163889,8.123333,427,Piedmont,Verrua Savoia (TO),
,heliport,small,"Eliporto Privato ""Campo d'Aviazone",43.862432,10.255292,,Tuscany,Viareggio,
LIBJ,heliport,small,"Helicopter Base ""Luigi Razza""",38.640456,16.042989,,Calabria,Vibo Valentia,
,heliport,small,Eliporto Vico del Gargano,41.894802,15.964009,,Apulia,Vico del Gargano,
,heliport,small,Eliporto Militare Jactenente,41.821111,15.987275,,Apulia,Vico del Gargano,
,heliport,small,Vieste Heliport,41.866417,16.165116,14,Apulia,Vieste,
,closed,closed,Volo Club Falchi Grigi,41.9101,16.0993,98,Apulia,Vieste (FG),
,heliport,small,Police Helipad,44.048416,8.132994,,Liguria,Villanova d´Albenga,
,heliport,small,Base elicotteri corpo forestale di Villasalto,39.479449,9.385912,,Sardinia,Villasalto,
,heliport,small,Vulcano Heliport,38.428187,14.95568,,Sicily,Vulcanello (ME),
,heliport,small,Vulcano Piano Emergency Heliport,38.382709,14.982693,,Sicily,Vulcano Piano (ME),